<?xml version="1.0" encoding="UTF-8"?>
<gpx version="1.1" creator="strava_segment_to_gpx"
     xmlns="http://www.topografix.com/GPX/1/1">
  <trk>
    <name>Le Grazie (Chiavari)</name>
    <trkseg>
      <trkpt lat="44.320253" lon="9.317296"><ele>12.2</ele></trkpt>
      <trkpt lat="44.320258" lon="9.317248"><ele>12.2</ele></trkpt>
      <trkpt lat="44.320262" lon="9.317196"><ele>12.4</ele></trkpt>
      <trkpt lat="44.320271" lon="9.317148"><ele>12.6</ele></trkpt>
      <trkpt lat="44.320286" lon="9.317107"><ele>12.6</ele></trkpt>
      <trkpt lat="44.320298" lon="9.317064"><ele>12.8</ele></trkpt>
      <trkpt lat="44.320310" lon="9.317017"><ele>13.0</ele></trkpt>
      <trkpt lat="44.320318" lon="9.316969"><ele>13.2</ele></trkpt>
      <trkpt lat="44.320336" lon="9.316917"><ele>13.4</ele></trkpt>
      <trkpt lat="44.320353" lon="9.316866"><ele>13.6</ele></trkpt>
      <trkpt lat="44.320368" lon="9.316813"><ele>14.0</ele></trkpt>
      <trkpt lat="44.320386" lon="9.316766"><ele>14.2</ele></trkpt>
      <trkpt lat="44.320408" lon="9.316730"><ele>14.4</ele></trkpt>
      <trkpt lat="44.320432" lon="9.316698"><ele>14.6</ele></trkpt>
      <trkpt lat="44.320459" lon="9.316667"><ele>15.0</ele></trkpt>
      <trkpt lat="44.320481" lon="9.316642"><ele>15.2</ele></trkpt>
      <trkpt lat="44.320504" lon="9.316615"><ele>15.6</ele></trkpt>
      <trkpt lat="44.320528" lon="9.316587"><ele>16.0</ele></trkpt>
      <trkpt lat="44.320553" lon="9.316564"><ele>16.2</ele></trkpt>
      <trkpt lat="44.320582" lon="9.316538"><ele>16.4</ele></trkpt>
      <trkpt lat="44.320610" lon="9.316513"><ele>16.6</ele></trkpt>
      <trkpt lat="44.320632" lon="9.316486"><ele>16.8</ele></trkpt>
      <trkpt lat="44.320655" lon="9.316460"><ele>17.2</ele></trkpt>
      <trkpt lat="44.320677" lon="9.316436"><ele>17.4</ele></trkpt>
      <trkpt lat="44.320699" lon="9.316414"><ele>17.6</ele></trkpt>
      <trkpt lat="44.320722" lon="9.316387"><ele>17.8</ele></trkpt>
      <trkpt lat="44.320747" lon="9.316362"><ele>18.2</ele></trkpt>
      <trkpt lat="44.320775" lon="9.316341"><ele>18.4</ele></trkpt>
      <trkpt lat="44.320804" lon="9.316324"><ele>18.6</ele></trkpt>
      <trkpt lat="44.320831" lon="9.316305"><ele>19.0</ele></trkpt>
      <trkpt lat="44.320858" lon="9.316292"><ele>19.2</ele></trkpt>
      <trkpt lat="44.320885" lon="9.316285"><ele>19.4</ele></trkpt>
      <trkpt lat="44.320911" lon="9.316281"><ele>19.6</ele></trkpt>
      <trkpt lat="44.320938" lon="9.316279"><ele>19.8</ele></trkpt>
      <trkpt lat="44.320969" lon="9.316275"><ele>20.0</ele></trkpt>
      <trkpt lat="44.321000" lon="9.316271"><ele>20.4</ele></trkpt>
      <trkpt lat="44.321031" lon="9.316261"><ele>20.6</ele></trkpt>
      <trkpt lat="44.321063" lon="9.316246"><ele>20.8</ele></trkpt>
      <trkpt lat="44.321094" lon="9.316227"><ele>21.0</ele></trkpt>
      <trkpt lat="44.321123" lon="9.316206"><ele>21.4</ele></trkpt>
      <trkpt lat="44.321148" lon="9.316181"><ele>21.6</ele></trkpt>
      <trkpt lat="44.321172" lon="9.316149"><ele>21.8</ele></trkpt>
      <trkpt lat="44.321197" lon="9.316112"><ele>22.0</ele></trkpt>
      <trkpt lat="44.321219" lon="9.316074"><ele>22.2</ele></trkpt>
      <trkpt lat="44.321241" lon="9.316031"><ele>22.2</ele></trkpt>
      <trkpt lat="44.321258" lon="9.315985"><ele>22.4</ele></trkpt>
      <trkpt lat="44.321273" lon="9.315936"><ele>22.6</ele></trkpt>
      <trkpt lat="44.321290" lon="9.315885"><ele>22.6</ele></trkpt>
      <trkpt lat="44.321306" lon="9.315836"><ele>22.8</ele></trkpt>
      <trkpt lat="44.321322" lon="9.315786"><ele>22.8</ele></trkpt>
      <trkpt lat="44.321335" lon="9.315736"><ele>23.0</ele></trkpt>
      <trkpt lat="44.321344" lon="9.315684"><ele>23.0</ele></trkpt>
      <trkpt lat="44.321351" lon="9.315634"><ele>23.2</ele></trkpt>
      <trkpt lat="44.321359" lon="9.315585"><ele>23.4</ele></trkpt>
      <trkpt lat="44.321368" lon="9.315536"><ele>23.6</ele></trkpt>
      <trkpt lat="44.321376" lon="9.315489"><ele>23.8</ele></trkpt>
      <trkpt lat="44.321383" lon="9.315437"><ele>24.0</ele></trkpt>
      <trkpt lat="44.321388" lon="9.315387"><ele>24.2</ele></trkpt>
      <trkpt lat="44.321393" lon="9.315336"><ele>24.4</ele></trkpt>
      <trkpt lat="44.321393" lon="9.315284"><ele>24.6</ele></trkpt>
      <trkpt lat="44.321391" lon="9.315235"><ele>24.8</ele></trkpt>
      <trkpt lat="44.321386" lon="9.315184"><ele>25.0</ele></trkpt>
      <trkpt lat="44.321381" lon="9.315135"><ele>25.4</ele></trkpt>
      <trkpt lat="44.321373" lon="9.315084"><ele>25.6</ele></trkpt>
      <trkpt lat="44.321366" lon="9.315033"><ele>25.8</ele></trkpt>
      <trkpt lat="44.321356" lon="9.314983"><ele>26.0</ele></trkpt>
      <trkpt lat="44.321346" lon="9.314936"><ele>26.2</ele></trkpt>
      <trkpt lat="44.321336" lon="9.314885"><ele>26.4</ele></trkpt>
      <trkpt lat="44.321328" lon="9.314834"><ele>26.6</ele></trkpt>
      <trkpt lat="44.321319" lon="9.314784"><ele>26.8</ele></trkpt>
      <trkpt lat="44.321308" lon="9.314737"><ele>27.0</ele></trkpt>
      <trkpt lat="44.321296" lon="9.314691"><ele>27.2</ele></trkpt>
      <trkpt lat="44.321286" lon="9.314645"><ele>27.4</ele></trkpt>
      <trkpt lat="44.321275" lon="9.314601"><ele>27.8</ele></trkpt>
      <trkpt lat="44.321265" lon="9.314552"><ele>28.0</ele></trkpt>
      <trkpt lat="44.321259" lon="9.314504"><ele>28.2</ele></trkpt>
      <trkpt lat="44.321251" lon="9.314458"><ele>28.4</ele></trkpt>
      <trkpt lat="44.321242" lon="9.314411"><ele>28.6</ele></trkpt>
      <trkpt lat="44.321233" lon="9.314361"><ele>28.8</ele></trkpt>
      <trkpt lat="44.321226" lon="9.314314"><ele>29.0</ele></trkpt>
      <trkpt lat="44.321216" lon="9.314271"><ele>29.2</ele></trkpt>
      <trkpt lat="44.321205" lon="9.314228"><ele>29.4</ele></trkpt>
      <trkpt lat="44.321196" lon="9.314183"><ele>29.6</ele></trkpt>
      <trkpt lat="44.321187" lon="9.314139"><ele>30.0</ele></trkpt>
      <trkpt lat="44.321180" lon="9.314096"><ele>30.2</ele></trkpt>
      <trkpt lat="44.321174" lon="9.314052"><ele>30.4</ele></trkpt>
      <trkpt lat="44.321173" lon="9.314009"><ele>30.6</ele></trkpt>
      <trkpt lat="44.321181" lon="9.313966"><ele>30.8</ele></trkpt>
      <trkpt lat="44.321199" lon="9.313928"><ele>31.2</ele></trkpt>
      <trkpt lat="44.321224" lon="9.313896"><ele>31.4</ele></trkpt>
      <trkpt lat="44.321257" lon="9.313876"><ele>31.8</ele></trkpt>
      <trkpt lat="44.321291" lon="9.313875"><ele>32.2</ele></trkpt>
      <trkpt lat="44.321322" lon="9.313888"><ele>32.4</ele></trkpt>
      <trkpt lat="44.321347" lon="9.313905"><ele>32.8</ele></trkpt>
      <trkpt lat="44.321370" lon="9.313935"><ele>33.0</ele></trkpt>
      <trkpt lat="44.321389" lon="9.313977"><ele>33.2</ele></trkpt>
      <trkpt lat="44.321403" lon="9.314019"><ele>33.6</ele></trkpt>
      <trkpt lat="44.321416" lon="9.314062"><ele>33.8</ele></trkpt>
      <trkpt lat="44.321434" lon="9.314105"><ele>34.2</ele></trkpt>
      <trkpt lat="44.321452" lon="9.314148"><ele>34.4</ele></trkpt>
      <trkpt lat="44.321468" lon="9.314194"><ele>34.8</ele></trkpt>
      <trkpt lat="44.321480" lon="9.314243"><ele>35.0</ele></trkpt>
      <trkpt lat="44.321489" lon="9.314290"><ele>35.2</ele></trkpt>
      <trkpt lat="44.321497" lon="9.314338"><ele>35.4</ele></trkpt>
      <trkpt lat="44.321507" lon="9.314386"><ele>35.8</ele></trkpt>
      <trkpt lat="44.321517" lon="9.314436"><ele>36.0</ele></trkpt>
      <trkpt lat="44.321528" lon="9.314483"><ele>36.2</ele></trkpt>
      <trkpt lat="44.321535" lon="9.314527"><ele>36.6</ele></trkpt>
      <trkpt lat="44.321543" lon="9.314574"><ele>36.8</ele></trkpt>
      <trkpt lat="44.321548" lon="9.314620"><ele>37.0</ele></trkpt>
      <trkpt lat="44.321554" lon="9.314668"><ele>37.2</ele></trkpt>
      <trkpt lat="44.321562" lon="9.314714"><ele>37.4</ele></trkpt>
      <trkpt lat="44.321570" lon="9.314759"><ele>37.6</ele></trkpt>
      <trkpt lat="44.321577" lon="9.314801"><ele>37.6</ele></trkpt>
      <trkpt lat="44.321586" lon="9.314844"><ele>37.8</ele></trkpt>
      <trkpt lat="44.321597" lon="9.314889"><ele>38.0</ele></trkpt>
      <trkpt lat="44.321608" lon="9.314934"><ele>38.4</ele></trkpt>
      <trkpt lat="44.321618" lon="9.314978"><ele>38.6</ele></trkpt>
      <trkpt lat="44.321631" lon="9.315019"><ele>38.8</ele></trkpt>
      <trkpt lat="44.321646" lon="9.315055"><ele>39.0</ele></trkpt>
      <trkpt lat="44.321662" lon="9.315092"><ele>39.4</ele></trkpt>
      <trkpt lat="44.321683" lon="9.315125"><ele>39.6</ele></trkpt>
      <trkpt lat="44.321703" lon="9.315160"><ele>39.8</ele></trkpt>
      <trkpt lat="44.321723" lon="9.315193"><ele>40.0</ele></trkpt>
      <trkpt lat="44.321743" lon="9.315229"><ele>40.4</ele></trkpt>
      <trkpt lat="44.321763" lon="9.315265"><ele>40.6</ele></trkpt>
      <trkpt lat="44.321784" lon="9.315300"><ele>40.6</ele></trkpt>
      <trkpt lat="44.321809" lon="9.315329"><ele>40.8</ele></trkpt>
      <trkpt lat="44.321832" lon="9.315360"><ele>41.0</ele></trkpt>
      <trkpt lat="44.321855" lon="9.315391"><ele>41.0</ele></trkpt>
      <trkpt lat="44.321880" lon="9.315423"><ele>41.0</ele></trkpt>
      <trkpt lat="44.321905" lon="9.315455"><ele>41.2</ele></trkpt>
      <trkpt lat="44.321924" lon="9.315481"><ele>41.4</ele></trkpt>
      <trkpt lat="44.321944" lon="9.315499"><ele>41.6</ele></trkpt>
      <trkpt lat="44.321963" lon="9.315514"><ele>41.8</ele></trkpt>
      <trkpt lat="44.321985" lon="9.315537"><ele>42.2</ele></trkpt>
      <trkpt lat="44.322005" lon="9.315559"><ele>42.4</ele></trkpt>
      <trkpt lat="44.322022" lon="9.315583"><ele>42.6</ele></trkpt>
      <trkpt lat="44.322040" lon="9.315608"><ele>42.8</ele></trkpt>
      <trkpt lat="44.322059" lon="9.315638"><ele>43.0</ele></trkpt>
      <trkpt lat="44.322078" lon="9.315661"><ele>43.2</ele></trkpt>
      <trkpt lat="44.322097" lon="9.315686"><ele>43.4</ele></trkpt>
      <trkpt lat="44.322116" lon="9.315711"><ele>43.4</ele></trkpt>
      <trkpt lat="44.322132" lon="9.315740"><ele>43.6</ele></trkpt>
      <trkpt lat="44.322149" lon="9.315771"><ele>43.8</ele></trkpt>
      <trkpt lat="44.322166" lon="9.315803"><ele>44.0</ele></trkpt>
      <trkpt lat="44.322181" lon="9.315837"><ele>44.2</ele></trkpt>
      <trkpt lat="44.322196" lon="9.315872"><ele>44.4</ele></trkpt>
      <trkpt lat="44.322210" lon="9.315908"><ele>44.6</ele></trkpt>
      <trkpt lat="44.322222" lon="9.315944"><ele>44.6</ele></trkpt>
      <trkpt lat="44.322230" lon="9.315974"><ele>44.8</ele></trkpt>
      <trkpt lat="44.322236" lon="9.316004"><ele>44.8</ele></trkpt>
      <trkpt lat="44.322241" lon="9.316035"><ele>45.0</ele></trkpt>
      <trkpt lat="44.322246" lon="9.316066"><ele>45.2</ele></trkpt>
      <trkpt lat="44.322253" lon="9.316101"><ele>45.4</ele></trkpt>
      <trkpt lat="44.322257" lon="9.316138"><ele>45.6</ele></trkpt>
      <trkpt lat="44.322259" lon="9.316176"><ele>45.8</ele></trkpt>
      <trkpt lat="44.322263" lon="9.316216"><ele>45.8</ele></trkpt>
      <trkpt lat="44.322270" lon="9.316253"><ele>46.2</ele></trkpt>
      <trkpt lat="44.322276" lon="9.316291"><ele>46.2</ele></trkpt>
      <trkpt lat="44.322282" lon="9.316327"><ele>46.4</ele></trkpt>
      <trkpt lat="44.322289" lon="9.316367"><ele>46.6</ele></trkpt>
      <trkpt lat="44.322296" lon="9.316406"><ele>46.8</ele></trkpt>
      <trkpt lat="44.322303" lon="9.316445"><ele>47.0</ele></trkpt>
      <trkpt lat="44.322310" lon="9.316482"><ele>47.2</ele></trkpt>
      <trkpt lat="44.322316" lon="9.316520"><ele>47.4</ele></trkpt>
      <trkpt lat="44.322319" lon="9.316554"><ele>47.6</ele></trkpt>
      <trkpt lat="44.322323" lon="9.316585"><ele>47.8</ele></trkpt>
      <trkpt lat="44.322330" lon="9.316618"><ele>48.0</ele></trkpt>
      <trkpt lat="44.322334" lon="9.316653"><ele>48.4</ele></trkpt>
      <trkpt lat="44.322340" lon="9.316687"><ele>48.6</ele></trkpt>
      <trkpt lat="44.322349" lon="9.316720"><ele>48.8</ele></trkpt>
      <trkpt lat="44.322356" lon="9.316755"><ele>49.0</ele></trkpt>
      <trkpt lat="44.322361" lon="9.316790"><ele>49.2</ele></trkpt>
      <trkpt lat="44.322364" lon="9.316827"><ele>49.4</ele></trkpt>
      <trkpt lat="44.322369" lon="9.316862"><ele>49.6</ele></trkpt>
      <trkpt lat="44.322372" lon="9.316898"><ele>49.8</ele></trkpt>
      <trkpt lat="44.322375" lon="9.316928"><ele>50.0</ele></trkpt>
      <trkpt lat="44.322380" lon="9.316957"><ele>50.2</ele></trkpt>
      <trkpt lat="44.322385" lon="9.316985"><ele>50.4</ele></trkpt>
      <trkpt lat="44.322390" lon="9.317019"><ele>50.6</ele></trkpt>
      <trkpt lat="44.322394" lon="9.317052"><ele>50.8</ele></trkpt>
      <trkpt lat="44.322400" lon="9.317087"><ele>51.0</ele></trkpt>
      <trkpt lat="44.322405" lon="9.317118"><ele>51.2</ele></trkpt>
      <trkpt lat="44.322412" lon="9.317150"><ele>51.4</ele></trkpt>
      <trkpt lat="44.322419" lon="9.317185"><ele>51.6</ele></trkpt>
      <trkpt lat="44.322428" lon="9.317216"><ele>51.8</ele></trkpt>
      <trkpt lat="44.322435" lon="9.317248"><ele>51.8</ele></trkpt>
      <trkpt lat="44.322437" lon="9.317284"><ele>52.0</ele></trkpt>
      <trkpt lat="44.322441" lon="9.317318"><ele>52.2</ele></trkpt>
      <trkpt lat="44.322445" lon="9.317352"><ele>52.4</ele></trkpt>
      <trkpt lat="44.322451" lon="9.317385"><ele>52.6</ele></trkpt>
      <trkpt lat="44.322454" lon="9.317413"><ele>52.8</ele></trkpt>
      <trkpt lat="44.322458" lon="9.317440"><ele>53.0</ele></trkpt>
      <trkpt lat="44.322461" lon="9.317463"><ele>53.4</ele></trkpt>
      <trkpt lat="44.322465" lon="9.317490"><ele>53.6</ele></trkpt>
      <trkpt lat="44.322469" lon="9.317523"><ele>53.8</ele></trkpt>
      <trkpt lat="44.322474" lon="9.317559"><ele>54.0</ele></trkpt>
      <trkpt lat="44.322478" lon="9.317604"><ele>54.2</ele></trkpt>
      <trkpt lat="44.322485" lon="9.317641"><ele>54.4</ele></trkpt>
      <trkpt lat="44.322492" lon="9.317671"><ele>54.6</ele></trkpt>
      <trkpt lat="44.322499" lon="9.317702"><ele>54.6</ele></trkpt>
      <trkpt lat="44.322502" lon="9.317734"><ele>54.8</ele></trkpt>
      <trkpt lat="44.322506" lon="9.317768"><ele>55.0</ele></trkpt>
      <trkpt lat="44.322513" lon="9.317797"><ele>55.2</ele></trkpt>
      <trkpt lat="44.322522" lon="9.317830"><ele>55.4</ele></trkpt>
      <trkpt lat="44.322530" lon="9.317861"><ele>55.6</ele></trkpt>
      <trkpt lat="44.322535" lon="9.317894"><ele>55.8</ele></trkpt>
      <trkpt lat="44.322541" lon="9.317926"><ele>55.8</ele></trkpt>
      <trkpt lat="44.322545" lon="9.317959"><ele>56.0</ele></trkpt>
      <trkpt lat="44.322544" lon="9.317993"><ele>56.2</ele></trkpt>
      <trkpt lat="44.322547" lon="9.318026"><ele>56.4</ele></trkpt>
      <trkpt lat="44.322554" lon="9.318058"><ele>56.4</ele></trkpt>
      <trkpt lat="44.322562" lon="9.318088"><ele>56.6</ele></trkpt>
      <trkpt lat="44.322570" lon="9.318119"><ele>56.8</ele></trkpt>
      <trkpt lat="44.322575" lon="9.318150"><ele>57.0</ele></trkpt>
      <trkpt lat="44.322581" lon="9.318180"><ele>57.2</ele></trkpt>
      <trkpt lat="44.322586" lon="9.318213"><ele>57.2</ele></trkpt>
      <trkpt lat="44.322592" lon="9.318246"><ele>57.4</ele></trkpt>
      <trkpt lat="44.322598" lon="9.318280"><ele>57.6</ele></trkpt>
      <trkpt lat="44.322604" lon="9.318312"><ele>57.8</ele></trkpt>
      <trkpt lat="44.322608" lon="9.318346"><ele>58.0</ele></trkpt>
      <trkpt lat="44.322611" lon="9.318378"><ele>58.0</ele></trkpt>
      <trkpt lat="44.322616" lon="9.318411"><ele>58.2</ele></trkpt>
      <trkpt lat="44.322624" lon="9.318440"><ele>58.4</ele></trkpt>
      <trkpt lat="44.322630" lon="9.318469"><ele>58.6</ele></trkpt>
      <trkpt lat="44.322634" lon="9.318500"><ele>58.8</ele></trkpt>
      <trkpt lat="44.322641" lon="9.318529"><ele>59.2</ele></trkpt>
      <trkpt lat="44.322647" lon="9.318563"><ele>59.4</ele></trkpt>
      <trkpt lat="44.322648" lon="9.318595"><ele>59.6</ele></trkpt>
      <trkpt lat="44.322652" lon="9.318619"><ele>59.8</ele></trkpt>
      <trkpt lat="44.322652" lon="9.318643"><ele>60.2</ele></trkpt>
      <trkpt lat="44.322656" lon="9.318670"><ele>60.2</ele></trkpt>
      <trkpt lat="44.322659" lon="9.318693"><ele>60.4</ele></trkpt>
      <trkpt lat="44.322664" lon="9.318711"><ele>60.6</ele></trkpt>
      <trkpt lat="44.322670" lon="9.318733"><ele>60.8</ele></trkpt>
      <trkpt lat="44.322677" lon="9.318758"><ele>61.0</ele></trkpt>
      <trkpt lat="44.322687" lon="9.318784"><ele>61.0</ele></trkpt>
      <trkpt lat="44.322699" lon="9.318807"><ele>61.2</ele></trkpt>
      <trkpt lat="44.322714" lon="9.318827"><ele>61.4</ele></trkpt>
      <trkpt lat="44.322730" lon="9.318847"><ele>61.4</ele></trkpt>
      <trkpt lat="44.322749" lon="9.318864"><ele>61.6</ele></trkpt>
      <trkpt lat="44.322767" lon="9.318879"><ele>61.6</ele></trkpt>
      <trkpt lat="44.322787" lon="9.318888"><ele>61.8</ele></trkpt>
      <trkpt lat="44.322809" lon="9.318891"><ele>61.8</ele></trkpt>
      <trkpt lat="44.322833" lon="9.318889"><ele>62.0</ele></trkpt>
      <trkpt lat="44.322856" lon="9.318881"><ele>62.2</ele></trkpt>
      <trkpt lat="44.322874" lon="9.318864"><ele>62.4</ele></trkpt>
      <trkpt lat="44.322893" lon="9.318843"><ele>62.6</ele></trkpt>
      <trkpt lat="44.322910" lon="9.318824"><ele>62.8</ele></trkpt>
      <trkpt lat="44.322924" lon="9.318809"><ele>63.0</ele></trkpt>
      <trkpt lat="44.322935" lon="9.318789"><ele>63.0</ele></trkpt>
      <trkpt lat="44.322946" lon="9.318779"><ele>63.0</ele></trkpt>
      <trkpt lat="44.322956" lon="9.318760"><ele>63.2</ele></trkpt>
      <trkpt lat="44.322966" lon="9.318742"><ele>63.2</ele></trkpt>
      <trkpt lat="44.322978" lon="9.318716"><ele>63.4</ele></trkpt>
      <trkpt lat="44.322992" lon="9.318689"><ele>63.4</ele></trkpt>
      <trkpt lat="44.323006" lon="9.318664"><ele>63.6</ele></trkpt>
      <trkpt lat="44.323019" lon="9.318640"><ele>63.6</ele></trkpt>
      <trkpt lat="44.323032" lon="9.318621"><ele>63.6</ele></trkpt>
      <trkpt lat="44.323043" lon="9.318596"><ele>63.8</ele></trkpt>
      <trkpt lat="44.323055" lon="9.318569"><ele>64.0</ele></trkpt>
      <trkpt lat="44.323067" lon="9.318544"><ele>64.2</ele></trkpt>
      <trkpt lat="44.323081" lon="9.318517"><ele>64.2</ele></trkpt>
      <trkpt lat="44.323095" lon="9.318493"><ele>64.4</ele></trkpt>
      <trkpt lat="44.323105" lon="9.318470"><ele>64.6</ele></trkpt>
      <trkpt lat="44.323119" lon="9.318443"><ele>64.6</ele></trkpt>
      <trkpt lat="44.323133" lon="9.318420"><ele>64.8</ele></trkpt>
      <trkpt lat="44.323147" lon="9.318396"><ele>65.0</ele></trkpt>
      <trkpt lat="44.323161" lon="9.318372"><ele>65.0</ele></trkpt>
      <trkpt lat="44.323174" lon="9.318344"><ele>65.2</ele></trkpt>
      <trkpt lat="44.323186" lon="9.318313"><ele>65.4</ele></trkpt>
      <trkpt lat="44.323198" lon="9.318284"><ele>65.6</ele></trkpt>
      <trkpt lat="44.323210" lon="9.318259"><ele>65.8</ele></trkpt>
      <trkpt lat="44.323223" lon="9.318232"><ele>66.0</ele></trkpt>
      <trkpt lat="44.323236" lon="9.318207"><ele>66.2</ele></trkpt>
      <trkpt lat="44.323251" lon="9.318183"><ele>66.4</ele></trkpt>
      <trkpt lat="44.323263" lon="9.318155"><ele>66.6</ele></trkpt>
      <trkpt lat="44.323276" lon="9.318129"><ele>66.6</ele></trkpt>
      <trkpt lat="44.323288" lon="9.318101"><ele>66.8</ele></trkpt>
      <trkpt lat="44.323300" lon="9.318076"><ele>67.0</ele></trkpt>
      <trkpt lat="44.323313" lon="9.318055"><ele>67.2</ele></trkpt>
      <trkpt lat="44.323322" lon="9.318030"><ele>67.2</ele></trkpt>
      <trkpt lat="44.323332" lon="9.318003"><ele>67.4</ele></trkpt>
      <trkpt lat="44.323343" lon="9.317977"><ele>67.6</ele></trkpt>
      <trkpt lat="44.323351" lon="9.317948"><ele>67.6</ele></trkpt>
      <trkpt lat="44.323361" lon="9.317922"><ele>67.6</ele></trkpt>
      <trkpt lat="44.323367" lon="9.317891"><ele>67.8</ele></trkpt>
      <trkpt lat="44.323375" lon="9.317860"><ele>67.8</ele></trkpt>
      <trkpt lat="44.323379" lon="9.317831"><ele>68.0</ele></trkpt>
      <trkpt lat="44.323384" lon="9.317801"><ele>68.0</ele></trkpt>
      <trkpt lat="44.323388" lon="9.317772"><ele>68.2</ele></trkpt>
      <trkpt lat="44.323389" lon="9.317742"><ele>68.4</ele></trkpt>
      <trkpt lat="44.323391" lon="9.317712"><ele>68.6</ele></trkpt>
      <trkpt lat="44.323392" lon="9.317684"><ele>68.8</ele></trkpt>
      <trkpt lat="44.323391" lon="9.317655"><ele>68.8</ele></trkpt>
      <trkpt lat="44.323391" lon="9.317626"><ele>69.2</ele></trkpt>
      <trkpt lat="44.323390" lon="9.317598"><ele>69.2</ele></trkpt>
      <trkpt lat="44.323389" lon="9.317568"><ele>69.4</ele></trkpt>
      <trkpt lat="44.323384" lon="9.317540"><ele>69.8</ele></trkpt>
      <trkpt lat="44.323379" lon="9.317510"><ele>70.0</ele></trkpt>
      <trkpt lat="44.323374" lon="9.317480"><ele>70.2</ele></trkpt>
      <trkpt lat="44.323367" lon="9.317450"><ele>70.4</ele></trkpt>
      <trkpt lat="44.323360" lon="9.317426"><ele>70.8</ele></trkpt>
      <trkpt lat="44.323351" lon="9.317405"><ele>71.0</ele></trkpt>
      <trkpt lat="44.323343" lon="9.317377"><ele>71.2</ele></trkpt>
      <trkpt lat="44.323328" lon="9.317349"><ele>71.4</ele></trkpt>
      <trkpt lat="44.323313" lon="9.317313"><ele>71.6</ele></trkpt>
      <trkpt lat="44.323294" lon="9.317275"><ele>71.6</ele></trkpt>
      <trkpt lat="44.323277" lon="9.317243"><ele>71.8</ele></trkpt>
      <trkpt lat="44.323267" lon="9.317219"><ele>72.0</ele></trkpt>
      <trkpt lat="44.323254" lon="9.317196"><ele>72.2</ele></trkpt>
      <trkpt lat="44.323241" lon="9.317173"><ele>72.2</ele></trkpt>
      <trkpt lat="44.323230" lon="9.317147"><ele>72.4</ele></trkpt>
      <trkpt lat="44.323219" lon="9.317121"><ele>72.6</ele></trkpt>
      <trkpt lat="44.323209" lon="9.317094"><ele>72.6</ele></trkpt>
      <trkpt lat="44.323200" lon="9.317065"><ele>72.8</ele></trkpt>
      <trkpt lat="44.323194" lon="9.317040"><ele>73.0</ele></trkpt>
      <trkpt lat="44.323188" lon="9.317011"><ele>73.2</ele></trkpt>
      <trkpt lat="44.323183" lon="9.316979"><ele>73.4</ele></trkpt>
      <trkpt lat="44.323179" lon="9.316948"><ele>73.4</ele></trkpt>
      <trkpt lat="44.323175" lon="9.316916"><ele>73.8</ele></trkpt>
      <trkpt lat="44.323177" lon="9.316883"><ele>73.8</ele></trkpt>
      <trkpt lat="44.323176" lon="9.316847"><ele>74.0</ele></trkpt>
      <trkpt lat="44.323174" lon="9.316817"><ele>74.2</ele></trkpt>
      <trkpt lat="44.323175" lon="9.316785"><ele>74.4</ele></trkpt>
      <trkpt lat="44.323176" lon="9.316751"><ele>74.6</ele></trkpt>
      <trkpt lat="44.323177" lon="9.316717"><ele>74.8</ele></trkpt>
      <trkpt lat="44.323178" lon="9.316685"><ele>75.0</ele></trkpt>
      <trkpt lat="44.323178" lon="9.316655"><ele>75.2</ele></trkpt>
      <trkpt lat="44.323178" lon="9.316620"><ele>75.2</ele></trkpt>
      <trkpt lat="44.323175" lon="9.316589"><ele>75.4</ele></trkpt>
      <trkpt lat="44.323173" lon="9.316557"><ele>75.6</ele></trkpt>
      <trkpt lat="44.323174" lon="9.316526"><ele>75.8</ele></trkpt>
      <trkpt lat="44.323175" lon="9.316492"><ele>76.0</ele></trkpt>
      <trkpt lat="44.323177" lon="9.316460"><ele>76.2</ele></trkpt>
      <trkpt lat="44.323176" lon="9.316428"><ele>76.4</ele></trkpt>
      <trkpt lat="44.323176" lon="9.316395"><ele>76.6</ele></trkpt>
      <trkpt lat="44.323175" lon="9.316364"><ele>76.8</ele></trkpt>
      <trkpt lat="44.323174" lon="9.316332"><ele>77.0</ele></trkpt>
      <trkpt lat="44.323174" lon="9.316300"><ele>77.2</ele></trkpt>
      <trkpt lat="44.323175" lon="9.316265"><ele>77.4</ele></trkpt>
      <trkpt lat="44.323177" lon="9.316230"><ele>77.6</ele></trkpt>
      <trkpt lat="44.323176" lon="9.316197"><ele>77.8</ele></trkpt>
      <trkpt lat="44.323176" lon="9.316165"><ele>78.0</ele></trkpt>
      <trkpt lat="44.323175" lon="9.316132"><ele>78.2</ele></trkpt>
      <trkpt lat="44.323174" lon="9.316099"><ele>78.4</ele></trkpt>
      <trkpt lat="44.323174" lon="9.316065"><ele>78.6</ele></trkpt>
      <trkpt lat="44.323175" lon="9.316031"><ele>78.8</ele></trkpt>
      <trkpt lat="44.323175" lon="9.315997"><ele>79.0</ele></trkpt>
      <trkpt lat="44.323173" lon="9.315963"><ele>79.2</ele></trkpt>
      <trkpt lat="44.323174" lon="9.315927"><ele>79.4</ele></trkpt>
      <trkpt lat="44.323174" lon="9.315892"><ele>79.6</ele></trkpt>
      <trkpt lat="44.323176" lon="9.315854"><ele>79.8</ele></trkpt>
      <trkpt lat="44.323178" lon="9.315814"><ele>80.0</ele></trkpt>
      <trkpt lat="44.323178" lon="9.315776"><ele>80.4</ele></trkpt>
      <trkpt lat="44.323180" lon="9.315741"><ele>80.4</ele></trkpt>
      <trkpt lat="44.323180" lon="9.315706"><ele>80.6</ele></trkpt>
      <trkpt lat="44.323182" lon="9.315672"><ele>80.8</ele></trkpt>
      <trkpt lat="44.323181" lon="9.315638"><ele>81.0</ele></trkpt>
      <trkpt lat="44.323179" lon="9.315605"><ele>81.2</ele></trkpt>
      <trkpt lat="44.323177" lon="9.315571"><ele>81.4</ele></trkpt>
      <trkpt lat="44.323177" lon="9.315536"><ele>81.6</ele></trkpt>
      <trkpt lat="44.323179" lon="9.315502"><ele>81.8</ele></trkpt>
      <trkpt lat="44.323180" lon="9.315468"><ele>82.0</ele></trkpt>
      <trkpt lat="44.323181" lon="9.315437"><ele>82.2</ele></trkpt>
      <trkpt lat="44.323180" lon="9.315404"><ele>82.4</ele></trkpt>
      <trkpt lat="44.323177" lon="9.315371"><ele>82.6</ele></trkpt>
      <trkpt lat="44.323173" lon="9.315341"><ele>82.8</ele></trkpt>
      <trkpt lat="44.323174" lon="9.315309"><ele>83.0</ele></trkpt>
      <trkpt lat="44.323177" lon="9.315276"><ele>83.2</ele></trkpt>
      <trkpt lat="44.323176" lon="9.315241"><ele>83.4</ele></trkpt>
      <trkpt lat="44.323173" lon="9.315205"><ele>83.6</ele></trkpt>
      <trkpt lat="44.323172" lon="9.315170"><ele>83.8</ele></trkpt>
      <trkpt lat="44.323170" lon="9.315133"><ele>84.0</ele></trkpt>
      <trkpt lat="44.323169" lon="9.315097"><ele>84.2</ele></trkpt>
      <trkpt lat="44.323168" lon="9.315063"><ele>84.4</ele></trkpt>
      <trkpt lat="44.323166" lon="9.315027"><ele>84.6</ele></trkpt>
      <trkpt lat="44.323164" lon="9.314995"><ele>84.8</ele></trkpt>
      <trkpt lat="44.323161" lon="9.314964"><ele>85.0</ele></trkpt>
      <trkpt lat="44.323158" lon="9.314931"><ele>85.2</ele></trkpt>
      <trkpt lat="44.323154" lon="9.314901"><ele>85.4</ele></trkpt>
      <trkpt lat="44.323151" lon="9.314867"><ele>85.6</ele></trkpt>
      <trkpt lat="44.323146" lon="9.314834"><ele>85.8</ele></trkpt>
      <trkpt lat="44.323145" lon="9.314804"><ele>86.0</ele></trkpt>
      <trkpt lat="44.323143" lon="9.314779"><ele>86.2</ele></trkpt>
      <trkpt lat="44.323142" lon="9.314762"><ele>86.4</ele></trkpt>
      <trkpt lat="44.323140" lon="9.314736"><ele>86.8</ele></trkpt>
      <trkpt lat="44.323140" lon="9.314706"><ele>87.0</ele></trkpt>
      <trkpt lat="44.323137" lon="9.314673"><ele>87.2</ele></trkpt>
      <trkpt lat="44.323135" lon="9.314637"><ele>87.4</ele></trkpt>
      <trkpt lat="44.323133" lon="9.314594"><ele>87.6</ele></trkpt>
      <trkpt lat="44.323128" lon="9.314557"><ele>87.8</ele></trkpt>
      <trkpt lat="44.323128" lon="9.314530"><ele>88.0</ele></trkpt>
      <trkpt lat="44.323127" lon="9.314506"><ele>88.2</ele></trkpt>
      <trkpt lat="44.323125" lon="9.314479"><ele>88.2</ele></trkpt>
      <trkpt lat="44.323120" lon="9.314455"><ele>88.6</ele></trkpt>
      <trkpt lat="44.323117" lon="9.314426"><ele>88.6</ele></trkpt>
      <trkpt lat="44.323116" lon="9.314395"><ele>88.8</ele></trkpt>
      <trkpt lat="44.323114" lon="9.314361"><ele>89.0</ele></trkpt>
      <trkpt lat="44.323114" lon="9.314328"><ele>89.0</ele></trkpt>
      <trkpt lat="44.323111" lon="9.314295"><ele>89.2</ele></trkpt>
      <trkpt lat="44.323107" lon="9.314261"><ele>89.4</ele></trkpt>
      <trkpt lat="44.323105" lon="9.314230"><ele>89.6</ele></trkpt>
      <trkpt lat="44.323102" lon="9.314199"><ele>89.8</ele></trkpt>
      <trkpt lat="44.323100" lon="9.314169"><ele>90.2</ele></trkpt>
      <trkpt lat="44.323098" lon="9.314132"><ele>90.4</ele></trkpt>
      <trkpt lat="44.323096" lon="9.314098"><ele>90.6</ele></trkpt>
      <trkpt lat="44.323092" lon="9.314067"><ele>90.8</ele></trkpt>
      <trkpt lat="44.323087" lon="9.314033"><ele>90.8</ele></trkpt>
      <trkpt lat="44.323087" lon="9.314003"><ele>91.0</ele></trkpt>
      <trkpt lat="44.323084" lon="9.313971"><ele>91.2</ele></trkpt>
      <trkpt lat="44.323082" lon="9.313939"><ele>91.4</ele></trkpt>
      <trkpt lat="44.323082" lon="9.313905"><ele>91.6</ele></trkpt>
      <trkpt lat="44.323081" lon="9.313869"><ele>91.8</ele></trkpt>
      <trkpt lat="44.323077" lon="9.313834"><ele>92.0</ele></trkpt>
      <trkpt lat="44.323074" lon="9.313800"><ele>92.2</ele></trkpt>
      <trkpt lat="44.323069" lon="9.313764"><ele>92.6</ele></trkpt>
      <trkpt lat="44.323068" lon="9.313730"><ele>92.8</ele></trkpt>
      <trkpt lat="44.323066" lon="9.313702"><ele>93.0</ele></trkpt>
      <trkpt lat="44.323064" lon="9.313677"><ele>93.0</ele></trkpt>
      <trkpt lat="44.323063" lon="9.313656"><ele>93.2</ele></trkpt>
      <trkpt lat="44.323064" lon="9.313631"><ele>93.4</ele></trkpt>
      <trkpt lat="44.323062" lon="9.313606"><ele>93.6</ele></trkpt>
      <trkpt lat="44.323059" lon="9.313583"><ele>93.6</ele></trkpt>
      <trkpt lat="44.323056" lon="9.313558"><ele>93.8</ele></trkpt>
      <trkpt lat="44.323056" lon="9.313531"><ele>94.0</ele></trkpt>
      <trkpt lat="44.323055" lon="9.313503"><ele>94.0</ele></trkpt>
      <trkpt lat="44.323052" lon="9.313471"><ele>94.2</ele></trkpt>
      <trkpt lat="44.323049" lon="9.313437"><ele>94.4</ele></trkpt>
      <trkpt lat="44.323046" lon="9.313404"><ele>94.4</ele></trkpt>
      <trkpt lat="44.323044" lon="9.313369"><ele>94.6</ele></trkpt>
      <trkpt lat="44.323044" lon="9.313338"><ele>94.8</ele></trkpt>
      <trkpt lat="44.323042" lon="9.313312"><ele>95.0</ele></trkpt>
      <trkpt lat="44.323041" lon="9.313289"><ele>95.2</ele></trkpt>
      <trkpt lat="44.323043" lon="9.313264"><ele>95.2</ele></trkpt>
      <trkpt lat="44.323044" lon="9.313237"><ele>95.4</ele></trkpt>
      <trkpt lat="44.323046" lon="9.313207"><ele>95.8</ele></trkpt>
      <trkpt lat="44.323047" lon="9.313180"><ele>96.0</ele></trkpt>
      <trkpt lat="44.323047" lon="9.313145"><ele>96.2</ele></trkpt>
      <trkpt lat="44.323049" lon="9.313115"><ele>96.2</ele></trkpt>
      <trkpt lat="44.323052" lon="9.313082"><ele>96.4</ele></trkpt>
      <trkpt lat="44.323054" lon="9.313052"><ele>96.6</ele></trkpt>
      <trkpt lat="44.323058" lon="9.313019"><ele>96.8</ele></trkpt>
      <trkpt lat="44.323060" lon="9.312987"><ele>97.0</ele></trkpt>
      <trkpt lat="44.323063" lon="9.312951"><ele>97.2</ele></trkpt>
      <trkpt lat="44.323064" lon="9.312917"><ele>97.4</ele></trkpt>
      <trkpt lat="44.323067" lon="9.312882"><ele>97.6</ele></trkpt>
      <trkpt lat="44.323072" lon="9.312848"><ele>97.8</ele></trkpt>
      <trkpt lat="44.323074" lon="9.312814"><ele>98.0</ele></trkpt>
      <trkpt lat="44.323075" lon="9.312780"><ele>98.2</ele></trkpt>
      <trkpt lat="44.323076" lon="9.312749"><ele>98.4</ele></trkpt>
      <trkpt lat="44.323079" lon="9.312715"><ele>98.6</ele></trkpt>
      <trkpt lat="44.323084" lon="9.312680"><ele>98.8</ele></trkpt>
      <trkpt lat="44.323087" lon="9.312646"><ele>99.0</ele></trkpt>
      <trkpt lat="44.323090" lon="9.312610"><ele>99.2</ele></trkpt>
      <trkpt lat="44.323092" lon="9.312574"><ele>99.4</ele></trkpt>
      <trkpt lat="44.323094" lon="9.312536"><ele>99.6</ele></trkpt>
      <trkpt lat="44.323097" lon="9.312498"><ele>99.8</ele></trkpt>
      <trkpt lat="44.323101" lon="9.312463"><ele>100.0</ele></trkpt>
      <trkpt lat="44.323102" lon="9.312428"><ele>100.2</ele></trkpt>
      <trkpt lat="44.323104" lon="9.312390"><ele>100.4</ele></trkpt>
      <trkpt lat="44.323106" lon="9.312353"><ele>100.6</ele></trkpt>
      <trkpt lat="44.323109" lon="9.312315"><ele>100.8</ele></trkpt>
      <trkpt lat="44.323112" lon="9.312279"><ele>101.0</ele></trkpt>
      <trkpt lat="44.323114" lon="9.312248"><ele>101.2</ele></trkpt>
      <trkpt lat="44.323117" lon="9.312222"><ele>101.2</ele></trkpt>
      <trkpt lat="44.323119" lon="9.312193"><ele>101.4</ele></trkpt>
      <trkpt lat="44.323122" lon="9.312161"><ele>101.6</ele></trkpt>
      <trkpt lat="44.323125" lon="9.312125"><ele>101.8</ele></trkpt>
      <trkpt lat="44.323126" lon="9.312091"><ele>102.2</ele></trkpt>
      <trkpt lat="44.323130" lon="9.312063"><ele>102.4</ele></trkpt>
      <trkpt lat="44.323132" lon="9.312033"><ele>102.6</ele></trkpt>
      <trkpt lat="44.323132" lon="9.312004"><ele>102.8</ele></trkpt>
      <trkpt lat="44.323135" lon="9.311976"><ele>103.0</ele></trkpt>
      <trkpt lat="44.323138" lon="9.311945"><ele>103.2</ele></trkpt>
      <trkpt lat="44.323142" lon="9.311914"><ele>103.4</ele></trkpt>
      <trkpt lat="44.323144" lon="9.311883"><ele>103.6</ele></trkpt>
      <trkpt lat="44.323145" lon="9.311849"><ele>103.6</ele></trkpt>
      <trkpt lat="44.323146" lon="9.311813"><ele>103.8</ele></trkpt>
      <trkpt lat="44.323150" lon="9.311779"><ele>104.0</ele></trkpt>
      <trkpt lat="44.323154" lon="9.311743"><ele>104.2</ele></trkpt>
      <trkpt lat="44.323156" lon="9.311710"><ele>104.4</ele></trkpt>
      <trkpt lat="44.323159" lon="9.311678"><ele>104.6</ele></trkpt>
      <trkpt lat="44.323161" lon="9.311641"><ele>105.0</ele></trkpt>
      <trkpt lat="44.323164" lon="9.311608"><ele>105.2</ele></trkpt>
      <trkpt lat="44.323167" lon="9.311574"><ele>105.4</ele></trkpt>
      <trkpt lat="44.323170" lon="9.311544"><ele>105.6</ele></trkpt>
      <trkpt lat="44.323173" lon="9.311519"><ele>105.8</ele></trkpt>
      <trkpt lat="44.323178" lon="9.311494"><ele>106.0</ele></trkpt>
      <trkpt lat="44.323179" lon="9.311465"><ele>106.0</ele></trkpt>
      <trkpt lat="44.323180" lon="9.311436"><ele>106.2</ele></trkpt>
      <trkpt lat="44.323182" lon="9.311404"><ele>106.2</ele></trkpt>
      <trkpt lat="44.323183" lon="9.311374"><ele>106.4</ele></trkpt>
      <trkpt lat="44.323186" lon="9.311340"><ele>106.6</ele></trkpt>
      <trkpt lat="44.323190" lon="9.311303"><ele>106.8</ele></trkpt>
      <trkpt lat="44.323195" lon="9.311270"><ele>107.0</ele></trkpt>
      <trkpt lat="44.323198" lon="9.311242"><ele>107.4</ele></trkpt>
      <trkpt lat="44.323200" lon="9.311216"><ele>107.6</ele></trkpt>
      <trkpt lat="44.323203" lon="9.311191"><ele>107.6</ele></trkpt>
      <trkpt lat="44.323198" lon="9.311168"><ele>107.8</ele></trkpt>
      <trkpt lat="44.323198" lon="9.311140"><ele>108.0</ele></trkpt>
      <trkpt lat="44.323201" lon="9.311108"><ele>108.2</ele></trkpt>
      <trkpt lat="44.323209" lon="9.311077"><ele>108.2</ele></trkpt>
      <trkpt lat="44.323213" lon="9.311045"><ele>108.4</ele></trkpt>
      <trkpt lat="44.323214" lon="9.311011"><ele>108.6</ele></trkpt>
      <trkpt lat="44.323219" lon="9.310979"><ele>108.8</ele></trkpt>
      <trkpt lat="44.323224" lon="9.310945"><ele>109.0</ele></trkpt>
      <trkpt lat="44.323227" lon="9.310911"><ele>109.2</ele></trkpt>
      <trkpt lat="44.323228" lon="9.310879"><ele>109.4</ele></trkpt>
      <trkpt lat="44.323228" lon="9.310849"><ele>109.6</ele></trkpt>
      <trkpt lat="44.323231" lon="9.310818"><ele>109.8</ele></trkpt>
      <trkpt lat="44.323236" lon="9.310786"><ele>110.2</ele></trkpt>
      <trkpt lat="44.323241" lon="9.310754"><ele>110.2</ele></trkpt>
      <trkpt lat="44.323248" lon="9.310722"><ele>110.4</ele></trkpt>
      <trkpt lat="44.323257" lon="9.310690"><ele>110.6</ele></trkpt>
      <trkpt lat="44.323264" lon="9.310657"><ele>110.8</ele></trkpt>
      <trkpt lat="44.323274" lon="9.310622"><ele>111.0</ele></trkpt>
      <trkpt lat="44.323280" lon="9.310588"><ele>111.2</ele></trkpt>
      <trkpt lat="44.323288" lon="9.310558"><ele>111.4</ele></trkpt>
      <trkpt lat="44.323295" lon="9.310529"><ele>111.8</ele></trkpt>
      <trkpt lat="44.323302" lon="9.310498"><ele>112.0</ele></trkpt>
      <trkpt lat="44.323310" lon="9.310470"><ele>112.4</ele></trkpt>
      <trkpt lat="44.323317" lon="9.310443"><ele>112.6</ele></trkpt>
      <trkpt lat="44.323323" lon="9.310419"><ele>112.8</ele></trkpt>
      <trkpt lat="44.323329" lon="9.310402"><ele>113.2</ele></trkpt>
      <trkpt lat="44.323337" lon="9.310378"><ele>113.4</ele></trkpt>
      <trkpt lat="44.323344" lon="9.310348"><ele>113.6</ele></trkpt>
      <trkpt lat="44.323357" lon="9.310315"><ele>113.8</ele></trkpt>
      <trkpt lat="44.323369" lon="9.310281"><ele>114.0</ele></trkpt>
      <trkpt lat="44.323382" lon="9.310246"><ele>114.2</ele></trkpt>
      <trkpt lat="44.323396" lon="9.310201"><ele>114.4</ele></trkpt>
      <trkpt lat="44.323410" lon="9.310159"><ele>114.8</ele></trkpt>
      <trkpt lat="44.323422" lon="9.310126"><ele>115.0</ele></trkpt>
      <trkpt lat="44.323431" lon="9.310097"><ele>115.2</ele></trkpt>
      <trkpt lat="44.323441" lon="9.310066"><ele>115.4</ele></trkpt>
      <trkpt lat="44.323450" lon="9.310039"><ele>115.6</ele></trkpt>
      <trkpt lat="44.323458" lon="9.310015"><ele>115.8</ele></trkpt>
      <trkpt lat="44.323471" lon="9.309994"><ele>116.0</ele></trkpt>
      <trkpt lat="44.323480" lon="9.309968"><ele>116.2</ele></trkpt>
      <trkpt lat="44.323489" lon="9.309944"><ele>116.6</ele></trkpt>
      <trkpt lat="44.323497" lon="9.309916"><ele>116.8</ele></trkpt>
      <trkpt lat="44.323506" lon="9.309888"><ele>116.8</ele></trkpt>
      <trkpt lat="44.323513" lon="9.309858"><ele>117.0</ele></trkpt>
      <trkpt lat="44.323520" lon="9.309824"><ele>117.0</ele></trkpt>
      <trkpt lat="44.323526" lon="9.309790"><ele>117.2</ele></trkpt>
      <trkpt lat="44.323533" lon="9.309761"><ele>117.4</ele></trkpt>
      <trkpt lat="44.323539" lon="9.309730"><ele>117.4</ele></trkpt>
      <trkpt lat="44.323542" lon="9.309702"><ele>117.6</ele></trkpt>
      <trkpt lat="44.323546" lon="9.309672"><ele>117.6</ele></trkpt>
      <trkpt lat="44.323550" lon="9.309643"><ele>117.8</ele></trkpt>
      <trkpt lat="44.323554" lon="9.309611"><ele>117.8</ele></trkpt>
      <trkpt lat="44.323559" lon="9.309574"><ele>118.0</ele></trkpt>
      <trkpt lat="44.323563" lon="9.309533"><ele>118.0</ele></trkpt>
      <trkpt lat="44.323565" lon="9.309498"><ele>118.2</ele></trkpt>
      <trkpt lat="44.323570" lon="9.309461"><ele>118.2</ele></trkpt>
      <trkpt lat="44.323572" lon="9.309431"><ele>118.4</ele></trkpt>
      <trkpt lat="44.323575" lon="9.309401"><ele>118.6</ele></trkpt>
      <trkpt lat="44.323582" lon="9.309372"><ele>118.6</ele></trkpt>
      <trkpt lat="44.323587" lon="9.309339"><ele>118.8</ele></trkpt>
      <trkpt lat="44.323588" lon="9.309306"><ele>119.0</ele></trkpt>
      <trkpt lat="44.323590" lon="9.309271"><ele>119.0</ele></trkpt>
      <trkpt lat="44.323597" lon="9.309232"><ele>119.2</ele></trkpt>
      <trkpt lat="44.323604" lon="9.309197"><ele>119.2</ele></trkpt>
      <trkpt lat="44.323608" lon="9.309161"><ele>119.4</ele></trkpt>
      <trkpt lat="44.323614" lon="9.309122"><ele>119.4</ele></trkpt>
      <trkpt lat="44.323621" lon="9.309082"><ele>119.6</ele></trkpt>
      <trkpt lat="44.323627" lon="9.309045"><ele>119.6</ele></trkpt>
      <trkpt lat="44.323635" lon="9.309006"><ele>119.8</ele></trkpt>
      <trkpt lat="44.323643" lon="9.308969"><ele>120.0</ele></trkpt>
      <trkpt lat="44.323649" lon="9.308932"><ele>120.2</ele></trkpt>
      <trkpt lat="44.323657" lon="9.308897"><ele>120.2</ele></trkpt>
      <trkpt lat="44.323665" lon="9.308857"><ele>120.4</ele></trkpt>
      <trkpt lat="44.323673" lon="9.308818"><ele>120.6</ele></trkpt>
      <trkpt lat="44.323683" lon="9.308783"><ele>120.8</ele></trkpt>
      <trkpt lat="44.323694" lon="9.308748"><ele>120.8</ele></trkpt>
      <trkpt lat="44.323702" lon="9.308717"><ele>121.0</ele></trkpt>
      <trkpt lat="44.323714" lon="9.308685"><ele>121.2</ele></trkpt>
      <trkpt lat="44.323724" lon="9.308651"><ele>121.4</ele></trkpt>
      <trkpt lat="44.323736" lon="9.308620"><ele>121.6</ele></trkpt>
      <trkpt lat="44.323752" lon="9.308593"><ele>121.8</ele></trkpt>
      <trkpt lat="44.323771" lon="9.308567"><ele>122.0</ele></trkpt>
      <trkpt lat="44.323789" lon="9.308541"><ele>122.2</ele></trkpt>
      <trkpt lat="44.323810" lon="9.308516"><ele>122.6</ele></trkpt>
      <trkpt lat="44.323827" lon="9.308489"><ele>123.0</ele></trkpt>
      <trkpt lat="44.323845" lon="9.308462"><ele>123.2</ele></trkpt>
      <trkpt lat="44.323863" lon="9.308436"><ele>123.6</ele></trkpt>
      <trkpt lat="44.323876" lon="9.308415"><ele>124.0</ele></trkpt>
      <trkpt lat="44.323889" lon="9.308392"><ele>124.2</ele></trkpt>
      <trkpt lat="44.323903" lon="9.308365"><ele>124.2</ele></trkpt>
      <trkpt lat="44.323917" lon="9.308335"><ele>124.4</ele></trkpt>
      <trkpt lat="44.323933" lon="9.308306"><ele>124.6</ele></trkpt>
      <trkpt lat="44.323949" lon="9.308279"><ele>124.6</ele></trkpt>
      <trkpt lat="44.323965" lon="9.308254"><ele>124.8</ele></trkpt>
      <trkpt lat="44.323981" lon="9.308229"><ele>125.0</ele></trkpt>
      <trkpt lat="44.323997" lon="9.308204"><ele>125.0</ele></trkpt>
      <trkpt lat="44.324013" lon="9.308179"><ele>125.2</ele></trkpt>
      <trkpt lat="44.324030" lon="9.308153"><ele>125.4</ele></trkpt>
      <trkpt lat="44.324047" lon="9.308125"><ele>125.6</ele></trkpt>
      <trkpt lat="44.324066" lon="9.308095"><ele>125.8</ele></trkpt>
      <trkpt lat="44.324081" lon="9.308066"><ele>126.0</ele></trkpt>
      <trkpt lat="44.324098" lon="9.308040"><ele>126.2</ele></trkpt>
      <trkpt lat="44.324115" lon="9.308014"><ele>126.4</ele></trkpt>
      <trkpt lat="44.324129" lon="9.307986"><ele>126.6</ele></trkpt>
      <trkpt lat="44.324144" lon="9.307960"><ele>126.8</ele></trkpt>
      <trkpt lat="44.324157" lon="9.307930"><ele>127.0</ele></trkpt>
      <trkpt lat="44.324166" lon="9.307899"><ele>127.2</ele></trkpt>
      <trkpt lat="44.324178" lon="9.307867"><ele>127.4</ele></trkpt>
      <trkpt lat="44.324192" lon="9.307837"><ele>127.6</ele></trkpt>
      <trkpt lat="44.324207" lon="9.307806"><ele>127.6</ele></trkpt>
      <trkpt lat="44.324221" lon="9.307774"><ele>127.8</ele></trkpt>
      <trkpt lat="44.324235" lon="9.307745"><ele>128.0</ele></trkpt>
      <trkpt lat="44.324247" lon="9.307714"><ele>128.2</ele></trkpt>
      <trkpt lat="44.324259" lon="9.307680"><ele>128.4</ele></trkpt>
      <trkpt lat="44.324269" lon="9.307649"><ele>128.4</ele></trkpt>
      <trkpt lat="44.324279" lon="9.307620"><ele>128.6</ele></trkpt>
      <trkpt lat="44.324290" lon="9.307594"><ele>128.8</ele></trkpt>
      <trkpt lat="44.324298" lon="9.307576"><ele>129.0</ele></trkpt>
      <trkpt lat="44.324306" lon="9.307558"><ele>129.2</ele></trkpt>
      <trkpt lat="44.324315" lon="9.307531"><ele>129.2</ele></trkpt>
      <trkpt lat="44.324326" lon="9.307501"><ele>129.4</ele></trkpt>
      <trkpt lat="44.324342" lon="9.307469"><ele>129.6</ele></trkpt>
      <trkpt lat="44.324358" lon="9.307428"><ele>129.8</ele></trkpt>
      <trkpt lat="44.324367" lon="9.307393"><ele>130.0</ele></trkpt>
      <trkpt lat="44.324375" lon="9.307364"><ele>130.2</ele></trkpt>
      <trkpt lat="44.324384" lon="9.307336"><ele>130.4</ele></trkpt>
      <trkpt lat="44.324393" lon="9.307310"><ele>130.6</ele></trkpt>
      <trkpt lat="44.324402" lon="9.307279"><ele>130.8</ele></trkpt>
      <trkpt lat="44.324411" lon="9.307252"><ele>131.0</ele></trkpt>
      <trkpt lat="44.324419" lon="9.307227"><ele>131.2</ele></trkpt>
      <trkpt lat="44.324427" lon="9.307201"><ele>131.4</ele></trkpt>
      <trkpt lat="44.324435" lon="9.307174"><ele>131.6</ele></trkpt>
      <trkpt lat="44.324441" lon="9.307145"><ele>131.8</ele></trkpt>
      <trkpt lat="44.324446" lon="9.307116"><ele>132.0</ele></trkpt>
      <trkpt lat="44.324451" lon="9.307089"><ele>132.0</ele></trkpt>
      <trkpt lat="44.324451" lon="9.307063"><ele>132.2</ele></trkpt>
      <trkpt lat="44.324454" lon="9.307035"><ele>132.4</ele></trkpt>
      <trkpt lat="44.324456" lon="9.307004"><ele>132.6</ele></trkpt>
      <trkpt lat="44.324459" lon="9.306975"><ele>132.8</ele></trkpt>
      <trkpt lat="44.324462" lon="9.306946"><ele>132.8</ele></trkpt>
      <trkpt lat="44.324462" lon="9.306917"><ele>133.0</ele></trkpt>
      <trkpt lat="44.324460" lon="9.306887"><ele>133.2</ele></trkpt>
      <trkpt lat="44.324461" lon="9.306856"><ele>133.4</ele></trkpt>
      <trkpt lat="44.324463" lon="9.306827"><ele>133.4</ele></trkpt>
      <trkpt lat="44.324466" lon="9.306802"><ele>133.6</ele></trkpt>
      <trkpt lat="44.324467" lon="9.306772"><ele>133.8</ele></trkpt>
      <trkpt lat="44.324467" lon="9.306741"><ele>134.0</ele></trkpt>
      <trkpt lat="44.324467" lon="9.306716"><ele>134.0</ele></trkpt>
      <trkpt lat="44.324469" lon="9.306691"><ele>134.2</ele></trkpt>
      <trkpt lat="44.324468" lon="9.306662"><ele>134.2</ele></trkpt>
      <trkpt lat="44.324469" lon="9.306631"><ele>134.4</ele></trkpt>
      <trkpt lat="44.324470" lon="9.306599"><ele>134.4</ele></trkpt>
      <trkpt lat="44.324470" lon="9.306565"><ele>134.6</ele></trkpt>
      <trkpt lat="44.324470" lon="9.306532"><ele>134.8</ele></trkpt>
      <trkpt lat="44.324471" lon="9.306496"><ele>134.8</ele></trkpt>
      <trkpt lat="44.324471" lon="9.306465"><ele>135.0</ele></trkpt>
      <trkpt lat="44.324473" lon="9.306434"><ele>135.2</ele></trkpt>
      <trkpt lat="44.324469" lon="9.306409"><ele>135.4</ele></trkpt>
      <trkpt lat="44.324473" lon="9.306385"><ele>135.6</ele></trkpt>
      <trkpt lat="44.324474" lon="9.306358"><ele>135.8</ele></trkpt>
      <trkpt lat="44.324477" lon="9.306331"><ele>135.8</ele></trkpt>
      <trkpt lat="44.324480" lon="9.306301"><ele>136.0</ele></trkpt>
      <trkpt lat="44.324485" lon="9.306273"><ele>136.2</ele></trkpt>
      <trkpt lat="44.324489" lon="9.306242"><ele>136.2</ele></trkpt>
      <trkpt lat="44.324490" lon="9.306211"><ele>136.4</ele></trkpt>
      <trkpt lat="44.324492" lon="9.306180"><ele>136.6</ele></trkpt>
      <trkpt lat="44.324496" lon="9.306149"><ele>136.6</ele></trkpt>
      <trkpt lat="44.324499" lon="9.306119"><ele>136.8</ele></trkpt>
      <trkpt lat="44.324501" lon="9.306094"><ele>137.0</ele></trkpt>
      <trkpt lat="44.324503" lon="9.306062"><ele>137.2</ele></trkpt>
      <trkpt lat="44.324507" lon="9.306035"><ele>137.4</ele></trkpt>
      <trkpt lat="44.324510" lon="9.306001"><ele>137.4</ele></trkpt>
      <trkpt lat="44.324513" lon="9.305972"><ele>137.6</ele></trkpt>
      <trkpt lat="44.324521" lon="9.305943"><ele>137.6</ele></trkpt>
      <trkpt lat="44.324522" lon="9.305917"><ele>137.8</ele></trkpt>
      <trkpt lat="44.324526" lon="9.305890"><ele>137.8</ele></trkpt>
      <trkpt lat="44.324531" lon="9.305863"><ele>138.0</ele></trkpt>
      <trkpt lat="44.324538" lon="9.305836"><ele>138.2</ele></trkpt>
      <trkpt lat="44.324545" lon="9.305806"><ele>138.4</ele></trkpt>
      <trkpt lat="44.324550" lon="9.305776"><ele>138.4</ele></trkpt>
      <trkpt lat="44.324554" lon="9.305747"><ele>138.6</ele></trkpt>
      <trkpt lat="44.324561" lon="9.305717"><ele>138.8</ele></trkpt>
      <trkpt lat="44.324568" lon="9.305686"><ele>139.0</ele></trkpt>
      <trkpt lat="44.324576" lon="9.305650"><ele>139.2</ele></trkpt>
      <trkpt lat="44.324581" lon="9.305623"><ele>139.4</ele></trkpt>
      <trkpt lat="44.324584" lon="9.305597"><ele>139.8</ele></trkpt>
      <trkpt lat="44.324590" lon="9.305572"><ele>140.0</ele></trkpt>
      <trkpt lat="44.324596" lon="9.305547"><ele>140.4</ele></trkpt>
      <trkpt lat="44.324600" lon="9.305519"><ele>140.6</ele></trkpt>
      <trkpt lat="44.324606" lon="9.305488"><ele>140.6</ele></trkpt>
      <trkpt lat="44.324612" lon="9.305465"><ele>140.6</ele></trkpt>
      <trkpt lat="44.324622" lon="9.305436"><ele>140.8</ele></trkpt>
      <trkpt lat="44.324629" lon="9.305405"><ele>140.8</ele></trkpt>
      <trkpt lat="44.324637" lon="9.305372"><ele>141.0</ele></trkpt>
      <trkpt lat="44.324645" lon="9.305341"><ele>141.2</ele></trkpt>
      <trkpt lat="44.324651" lon="9.305307"><ele>141.4</ele></trkpt>
      <trkpt lat="44.324659" lon="9.305277"><ele>141.6</ele></trkpt>
      <trkpt lat="44.324667" lon="9.305245"><ele>141.8</ele></trkpt>
      <trkpt lat="44.324677" lon="9.305216"><ele>142.0</ele></trkpt>
      <trkpt lat="44.324687" lon="9.305192"><ele>142.2</ele></trkpt>
      <trkpt lat="44.324692" lon="9.305163"><ele>142.4</ele></trkpt>
      <trkpt lat="44.324698" lon="9.305131"><ele>142.6</ele></trkpt>
      <trkpt lat="44.324705" lon="9.305104"><ele>142.6</ele></trkpt>
      <trkpt lat="44.324712" lon="9.305075"><ele>142.8</ele></trkpt>
      <trkpt lat="44.324721" lon="9.305043"><ele>142.8</ele></trkpt>
      <trkpt lat="44.324731" lon="9.305011"><ele>143.0</ele></trkpt>
      <trkpt lat="44.324741" lon="9.304982"><ele>143.2</ele></trkpt>
      <trkpt lat="44.324748" lon="9.304952"><ele>143.4</ele></trkpt>
      <trkpt lat="44.324759" lon="9.304923"><ele>143.6</ele></trkpt>
      <trkpt lat="44.324769" lon="9.304895"><ele>143.8</ele></trkpt>
      <trkpt lat="44.324778" lon="9.304865"><ele>144.0</ele></trkpt>
      <trkpt lat="44.324788" lon="9.304831"><ele>144.2</ele></trkpt>
      <trkpt lat="44.324798" lon="9.304806"><ele>144.4</ele></trkpt>
      <trkpt lat="44.324811" lon="9.304772"><ele>144.6</ele></trkpt>
      <trkpt lat="44.324823" lon="9.304742"><ele>145.0</ele></trkpt>
      <trkpt lat="44.324836" lon="9.304710"><ele>145.2</ele></trkpt>
      <trkpt lat="44.324846" lon="9.304679"><ele>145.4</ele></trkpt>
      <trkpt lat="44.324855" lon="9.304652"><ele>145.6</ele></trkpt>
      <trkpt lat="44.324862" lon="9.304627"><ele>145.8</ele></trkpt>
      <trkpt lat="44.324870" lon="9.304596"><ele>145.8</ele></trkpt>
      <trkpt lat="44.324879" lon="9.304564"><ele>146.2</ele></trkpt>
      <trkpt lat="44.324890" lon="9.304535"><ele>146.2</ele></trkpt>
      <trkpt lat="44.324900" lon="9.304507"><ele>146.4</ele></trkpt>
      <trkpt lat="44.324911" lon="9.304477"><ele>146.8</ele></trkpt>
      <trkpt lat="44.324922" lon="9.304445"><ele>147.0</ele></trkpt>
      <trkpt lat="44.324930" lon="9.304413"><ele>147.2</ele></trkpt>
      <trkpt lat="44.324940" lon="9.304381"><ele>147.4</ele></trkpt>
      <trkpt lat="44.324949" lon="9.304345"><ele>147.4</ele></trkpt>
      <trkpt lat="44.324957" lon="9.304315"><ele>147.8</ele></trkpt>
      <trkpt lat="44.324965" lon="9.304291"><ele>148.0</ele></trkpt>
      <trkpt lat="44.324972" lon="9.304267"><ele>148.2</ele></trkpt>
      <trkpt lat="44.324982" lon="9.304236"><ele>148.4</ele></trkpt>
      <trkpt lat="44.324994" lon="9.304197"><ele>148.4</ele></trkpt>
      <trkpt lat="44.325007" lon="9.304156"><ele>148.6</ele></trkpt>
      <trkpt lat="44.325015" lon="9.304120"><ele>148.8</ele></trkpt>
      <trkpt lat="44.325020" lon="9.304092"><ele>149.0</ele></trkpt>
      <trkpt lat="44.325026" lon="9.304064"><ele>149.4</ele></trkpt>
      <trkpt lat="44.325031" lon="9.304036"><ele>149.4</ele></trkpt>
      <trkpt lat="44.325037" lon="9.304004"><ele>149.6</ele></trkpt>
      <trkpt lat="44.325041" lon="9.303977"><ele>149.8</ele></trkpt>
      <trkpt lat="44.325045" lon="9.303943"><ele>149.8</ele></trkpt>
      <trkpt lat="44.325052" lon="9.303912"><ele>150.0</ele></trkpt>
      <trkpt lat="44.325061" lon="9.303880"><ele>150.2</ele></trkpt>
      <trkpt lat="44.325066" lon="9.303846"><ele>150.4</ele></trkpt>
      <trkpt lat="44.325072" lon="9.303813"><ele>150.8</ele></trkpt>
      <trkpt lat="44.325076" lon="9.303777"><ele>151.0</ele></trkpt>
      <trkpt lat="44.325077" lon="9.303742"><ele>151.2</ele></trkpt>
      <trkpt lat="44.325078" lon="9.303703"><ele>151.2</ele></trkpt>
      <trkpt lat="44.325081" lon="9.303666"><ele>151.4</ele></trkpt>
      <trkpt lat="44.325085" lon="9.303631"><ele>151.4</ele></trkpt>
      <trkpt lat="44.325087" lon="9.303593"><ele>151.6</ele></trkpt>
      <trkpt lat="44.325091" lon="9.303557"><ele>151.6</ele></trkpt>
      <trkpt lat="44.325094" lon="9.303520"><ele>151.8</ele></trkpt>
      <trkpt lat="44.325095" lon="9.303483"><ele>152.0</ele></trkpt>
      <trkpt lat="44.325095" lon="9.303446"><ele>152.2</ele></trkpt>
      <trkpt lat="44.325096" lon="9.303412"><ele>152.4</ele></trkpt>
      <trkpt lat="44.325099" lon="9.303376"><ele>152.6</ele></trkpt>
      <trkpt lat="44.325102" lon="9.303342"><ele>152.8</ele></trkpt>
      <trkpt lat="44.325103" lon="9.303306"><ele>153.0</ele></trkpt>
      <trkpt lat="44.325101" lon="9.303268"><ele>153.2</ele></trkpt>
      <trkpt lat="44.325099" lon="9.303235"><ele>153.4</ele></trkpt>
      <trkpt lat="44.325099" lon="9.303202"><ele>153.8</ele></trkpt>
      <trkpt lat="44.325096" lon="9.303166"><ele>154.0</ele></trkpt>
      <trkpt lat="44.325097" lon="9.303129"><ele>154.4</ele></trkpt>
      <trkpt lat="44.325099" lon="9.303093"><ele>154.6</ele></trkpt>
      <trkpt lat="44.325100" lon="9.303066"><ele>154.8</ele></trkpt>
      <trkpt lat="44.325102" lon="9.303037"><ele>155.2</ele></trkpt>
      <trkpt lat="44.325102" lon="9.303011"><ele>155.4</ele></trkpt>
      <trkpt lat="44.325103" lon="9.302984"><ele>155.4</ele></trkpt>
      <trkpt lat="44.325105" lon="9.302952"><ele>155.6</ele></trkpt>
      <trkpt lat="44.325104" lon="9.302919"><ele>155.8</ele></trkpt>
      <trkpt lat="44.325104" lon="9.302882"><ele>155.8</ele></trkpt>
      <trkpt lat="44.325104" lon="9.302849"><ele>155.8</ele></trkpt>
      <trkpt lat="44.325106" lon="9.302818"><ele>156.0</ele></trkpt>
      <trkpt lat="44.325110" lon="9.302786"><ele>156.2</ele></trkpt>
      <trkpt lat="44.325115" lon="9.302751"><ele>156.4</ele></trkpt>
      <trkpt lat="44.325120" lon="9.302720"><ele>156.4</ele></trkpt>
      <trkpt lat="44.325128" lon="9.302696"><ele>156.6</ele></trkpt>
      <trkpt lat="44.325131" lon="9.302672"><ele>156.8</ele></trkpt>
      <trkpt lat="44.325138" lon="9.302649"><ele>157.0</ele></trkpt>
      <trkpt lat="44.325143" lon="9.302626"><ele>157.2</ele></trkpt>
      <trkpt lat="44.325151" lon="9.302600"><ele>157.4</ele></trkpt>
      <trkpt lat="44.325157" lon="9.302573"><ele>157.6</ele></trkpt>
      <trkpt lat="44.325165" lon="9.302546"><ele>157.8</ele></trkpt>
      <trkpt lat="44.325172" lon="9.302516"><ele>157.8</ele></trkpt>
      <trkpt lat="44.325179" lon="9.302487"><ele>158.0</ele></trkpt>
      <trkpt lat="44.325188" lon="9.302460"><ele>158.0</ele></trkpt>
      <trkpt lat="44.325199" lon="9.302430"><ele>158.2</ele></trkpt>
      <trkpt lat="44.325208" lon="9.302397"><ele>158.2</ele></trkpt>
      <trkpt lat="44.325215" lon="9.302362"><ele>158.4</ele></trkpt>
      <trkpt lat="44.325221" lon="9.302328"><ele>158.6</ele></trkpt>
      <trkpt lat="44.325228" lon="9.302296"><ele>158.8</ele></trkpt>
      <trkpt lat="44.325235" lon="9.302273"><ele>158.8</ele></trkpt>
      <trkpt lat="44.325239" lon="9.302253"><ele>159.0</ele></trkpt>
      <trkpt lat="44.325242" lon="9.302230"><ele>159.2</ele></trkpt>
      <trkpt lat="44.325248" lon="9.302214"><ele>159.4</ele></trkpt>
      <trkpt lat="44.325252" lon="9.302194"><ele>159.8</ele></trkpt>
      <trkpt lat="44.325257" lon="9.302176"><ele>160.0</ele></trkpt>
      <trkpt lat="44.325263" lon="9.302163"><ele>160.2</ele></trkpt>
      <trkpt lat="44.325269" lon="9.302154"><ele>160.6</ele></trkpt>
      <trkpt lat="44.325275" lon="9.302139"><ele>160.8</ele></trkpt>
      <trkpt lat="44.325279" lon="9.302123"><ele>161.2</ele></trkpt>
      <trkpt lat="44.325282" lon="9.302103"><ele>161.4</ele></trkpt>
      <trkpt lat="44.325283" lon="9.302080"><ele>161.6</ele></trkpt>
      <trkpt lat="44.325278" lon="9.302055"><ele>161.8</ele></trkpt>
      <trkpt lat="44.325269" lon="9.302018"><ele>162.0</ele></trkpt>
      <trkpt lat="44.325255" lon="9.301985"><ele>162.2</ele></trkpt>
      <trkpt lat="44.325246" lon="9.301949"><ele>162.4</ele></trkpt>
      <trkpt lat="44.325242" lon="9.301920"><ele>162.8</ele></trkpt>
      <trkpt lat="44.325248" lon="9.301888"><ele>163.0</ele></trkpt>
      <trkpt lat="44.325255" lon="9.301862"><ele>163.2</ele></trkpt>
      <trkpt lat="44.325556" lon="9.301911"><ele>163.4</ele></trkpt>
      <trkpt lat="44.325552" lon="9.301891"><ele>163.6</ele></trkpt>
      <trkpt lat="44.325561" lon="9.301885"><ele>164.0</ele></trkpt>
      <trkpt lat="44.325565" lon="9.301852"><ele>164.2</ele></trkpt>
      <trkpt lat="44.325577" lon="9.301797"><ele>164.4</ele></trkpt>
      <trkpt lat="44.325590" lon="9.301751"><ele>164.6</ele></trkpt>
      <trkpt lat="44.325600" lon="9.301712"><ele>164.6</ele></trkpt>
      <trkpt lat="44.325612" lon="9.301686"><ele>164.8</ele></trkpt>
      <trkpt lat="44.325619" lon="9.301658"><ele>165.0</ele></trkpt>
      <trkpt lat="44.325624" lon="9.301634"><ele>165.4</ele></trkpt>
      <trkpt lat="44.325620" lon="9.301611"><ele>165.8</ele></trkpt>
      <trkpt lat="44.325612" lon="9.301595"><ele>166.0</ele></trkpt>
      <trkpt lat="44.325613" lon="9.301573"><ele>166.4</ele></trkpt>
      <trkpt lat="44.325626" lon="9.301548"><ele>166.6</ele></trkpt>
      <trkpt lat="44.325629" lon="9.301549"><ele>166.8</ele></trkpt>
      <trkpt lat="44.325640" lon="9.301533"><ele>166.8</ele></trkpt>
      <trkpt lat="44.325650" lon="9.301505"><ele>167.0</ele></trkpt>
      <trkpt lat="44.325669" lon="9.301474"><ele>167.0</ele></trkpt>
      <trkpt lat="44.325685" lon="9.301434"><ele>167.2</ele></trkpt>
      <trkpt lat="44.325702" lon="9.301387"><ele>167.2</ele></trkpt>
      <trkpt lat="44.325716" lon="9.301342"><ele>167.4</ele></trkpt>
      <trkpt lat="44.325736" lon="9.301301"><ele>167.6</ele></trkpt>
      <trkpt lat="44.325759" lon="9.301254"><ele>167.8</ele></trkpt>
      <trkpt lat="44.325792" lon="9.301201"><ele>168.0</ele></trkpt>
      <trkpt lat="44.325820" lon="9.301142"><ele>168.2</ele></trkpt>
      <trkpt lat="44.325852" lon="9.301056"><ele>168.4</ele></trkpt>
      <trkpt lat="44.325875" lon="9.300977"><ele>168.6</ele></trkpt>
      <trkpt lat="44.325889" lon="9.300904"><ele>168.8</ele></trkpt>
      <trkpt lat="44.325898" lon="9.300845"><ele>169.0</ele></trkpt>
      <trkpt lat="44.325909" lon="9.300745"><ele>169.2</ele></trkpt>
      <trkpt lat="44.325917" lon="9.300645"><ele>169.2</ele></trkpt>
      <trkpt lat="44.325936" lon="9.300579"><ele>169.4</ele></trkpt>
      <trkpt lat="44.325945" lon="9.300533"><ele>169.6</ele></trkpt>
      <trkpt lat="44.325959" lon="9.300444"><ele>169.8</ele></trkpt>
      <trkpt lat="44.325974" lon="9.300355"><ele>170.0</ele></trkpt>
      <trkpt lat="44.325987" lon="9.300279"><ele>170.2</ele></trkpt>
      <trkpt lat="44.325995" lon="9.300230"><ele>170.4</ele></trkpt>
      <trkpt lat="44.326010" lon="9.300202"><ele>170.6</ele></trkpt>
      <trkpt lat="44.326017" lon="9.300174"><ele>170.8</ele></trkpt>
      <trkpt lat="44.326013" lon="9.300142"><ele>170.8</ele></trkpt>
      <trkpt lat="44.326015" lon="9.300093"><ele>171.0</ele></trkpt>
      <trkpt lat="44.326010" lon="9.300033"><ele>171.2</ele></trkpt>
      <trkpt lat="44.326005" lon="9.299974"><ele>171.4</ele></trkpt>
      <trkpt lat="44.326001" lon="9.299923"><ele>171.4</ele></trkpt>
      <trkpt lat="44.326001" lon="9.299888"><ele>171.6</ele></trkpt>
      <trkpt lat="44.325996" lon="9.299857"><ele>171.8</ele></trkpt>
      <trkpt lat="44.325996" lon="9.299801"><ele>172.0</ele></trkpt>
      <trkpt lat="44.325994" lon="9.299745"><ele>172.0</ele></trkpt>
      <trkpt lat="44.326000" lon="9.299645"><ele>172.4</ele></trkpt>
      <trkpt lat="44.326005" lon="9.299579"><ele>172.6</ele></trkpt>
      <trkpt lat="44.326003" lon="9.299536"><ele>172.6</ele></trkpt>
      <trkpt lat="44.326002" lon="9.299498"><ele>172.8</ele></trkpt>
      <trkpt lat="44.326002" lon="9.299463"><ele>173.0</ele></trkpt>
      <trkpt lat="44.326004" lon="9.299431"><ele>173.2</ele></trkpt>
      <trkpt lat="44.326003" lon="9.299420"><ele>173.4</ele></trkpt>
      <trkpt lat="44.325999" lon="9.299435"><ele>173.6</ele></trkpt>
      <trkpt lat="44.326018" lon="9.299474"><ele>173.8</ele></trkpt>
      <trkpt lat="44.326023" lon="9.299476"><ele>174.0</ele></trkpt>
      <trkpt lat="44.326024" lon="9.299472"><ele>174.2</ele></trkpt>
      <trkpt lat="44.326024" lon="9.299463"><ele>174.2</ele></trkpt>
      <trkpt lat="44.326010" lon="9.299475"><ele>174.6</ele></trkpt>
      <trkpt lat="44.325997" lon="9.299503"><ele>174.8</ele></trkpt>
      <trkpt lat="44.325973" lon="9.299547"><ele>175.0</ele></trkpt>
      <trkpt lat="44.325953" lon="9.299582"><ele>175.2</ele></trkpt>
      <trkpt lat="44.325943" lon="9.299626"><ele>175.4</ele></trkpt>
      <trkpt lat="44.325940" lon="9.299637"><ele>175.6</ele></trkpt>
      <trkpt lat="44.325941" lon="9.299634"><ele>175.6</ele></trkpt>
      <trkpt lat="44.325941" lon="9.299625"><ele>175.8</ele></trkpt>
      <trkpt lat="44.325946" lon="9.299610"><ele>175.8</ele></trkpt>
      <trkpt lat="44.325949" lon="9.299588"><ele>175.8</ele></trkpt>
      <trkpt lat="44.325953" lon="9.299565"><ele>175.8</ele></trkpt>
      <trkpt lat="44.325959" lon="9.299539"><ele>175.8</ele></trkpt>
      <trkpt lat="44.325965" lon="9.299516"><ele>175.8</ele></trkpt>
      <trkpt lat="44.325970" lon="9.299492"><ele>175.8</ele></trkpt>
      <trkpt lat="44.325973" lon="9.299469"><ele>176.0</ele></trkpt>
      <trkpt lat="44.325974" lon="9.299447"><ele>176.2</ele></trkpt>
      <trkpt lat="44.325977" lon="9.299424"><ele>176.2</ele></trkpt>
      <trkpt lat="44.325982" lon="9.299397"><ele>176.4</ele></trkpt>
      <trkpt lat="44.325987" lon="9.299373"><ele>176.6</ele></trkpt>
      <trkpt lat="44.325992" lon="9.299345"><ele>176.8</ele></trkpt>
      <trkpt lat="44.325992" lon="9.299324"><ele>177.0</ele></trkpt>
      <trkpt lat="44.325992" lon="9.299298"><ele>177.2</ele></trkpt>
      <trkpt lat="44.325994" lon="9.299271"><ele>177.4</ele></trkpt>
      <trkpt lat="44.326002" lon="9.299249"><ele>177.6</ele></trkpt>
      <trkpt lat="44.326009" lon="9.299227"><ele>177.6</ele></trkpt>
      <trkpt lat="44.326020" lon="9.299204"><ele>177.8</ele></trkpt>
      <trkpt lat="44.326028" lon="9.299181"><ele>178.0</ele></trkpt>
      <trkpt lat="44.326038" lon="9.299158"><ele>178.2</ele></trkpt>
      <trkpt lat="44.326045" lon="9.299133"><ele>178.4</ele></trkpt>
      <trkpt lat="44.326051" lon="9.299110"><ele>178.6</ele></trkpt>
      <trkpt lat="44.326056" lon="9.299083"><ele>178.6</ele></trkpt>
      <trkpt lat="44.326063" lon="9.299059"><ele>178.8</ele></trkpt>
      <trkpt lat="44.326070" lon="9.299036"><ele>178.8</ele></trkpt>
      <trkpt lat="44.326079" lon="9.299015"><ele>179.0</ele></trkpt>
      <trkpt lat="44.326087" lon="9.298989"><ele>179.2</ele></trkpt>
      <trkpt lat="44.326093" lon="9.298965"><ele>179.4</ele></trkpt>
      <trkpt lat="44.326099" lon="9.298942"><ele>179.6</ele></trkpt>
      <trkpt lat="44.326106" lon="9.298918"><ele>179.6</ele></trkpt>
      <trkpt lat="44.326113" lon="9.298891"><ele>179.8</ele></trkpt>
      <trkpt lat="44.326121" lon="9.298865"><ele>180.0</ele></trkpt>
      <trkpt lat="44.326127" lon="9.298841"><ele>180.0</ele></trkpt>
      <trkpt lat="44.326131" lon="9.298813"><ele>180.2</ele></trkpt>
      <trkpt lat="44.326136" lon="9.298786"><ele>180.4</ele></trkpt>
      <trkpt lat="44.326147" lon="9.298761"><ele>180.6</ele></trkpt>
      <trkpt lat="44.326157" lon="9.298734"><ele>180.8</ele></trkpt>
      <trkpt lat="44.326163" lon="9.298711"><ele>181.0</ele></trkpt>
      <trkpt lat="44.326172" lon="9.298687"><ele>181.0</ele></trkpt>
      <trkpt lat="44.326182" lon="9.298664"><ele>181.2</ele></trkpt>
      <trkpt lat="44.326192" lon="9.298634"><ele>181.4</ele></trkpt>
      <trkpt lat="44.326203" lon="9.298607"><ele>181.4</ele></trkpt>
      <trkpt lat="44.326210" lon="9.298582"><ele>181.6</ele></trkpt>
      <trkpt lat="44.326216" lon="9.298562"><ele>181.8</ele></trkpt>
      <trkpt lat="44.326222" lon="9.298540"><ele>182.0</ele></trkpt>
      <trkpt lat="44.326229" lon="9.298519"><ele>182.0</ele></trkpt>
      <trkpt lat="44.326237" lon="9.298496"><ele>182.2</ele></trkpt>
      <trkpt lat="44.326244" lon="9.298474"><ele>182.4</ele></trkpt>
      <trkpt lat="44.326253" lon="9.298449"><ele>182.4</ele></trkpt>
      <trkpt lat="44.326265" lon="9.298427"><ele>182.6</ele></trkpt>
      <trkpt lat="44.326277" lon="9.298404"><ele>183.0</ele></trkpt>
      <trkpt lat="44.326289" lon="9.298383"><ele>183.2</ele></trkpt>
      <trkpt lat="44.326299" lon="9.298358"><ele>183.4</ele></trkpt>
      <trkpt lat="44.326311" lon="9.298334"><ele>183.6</ele></trkpt>
      <trkpt lat="44.326321" lon="9.298311"><ele>183.6</ele></trkpt>
      <trkpt lat="44.326334" lon="9.298290"><ele>183.8</ele></trkpt>
      <trkpt lat="44.326348" lon="9.298271"><ele>184.0</ele></trkpt>
      <trkpt lat="44.326364" lon="9.298248"><ele>184.2</ele></trkpt>
      <trkpt lat="44.326379" lon="9.298226"><ele>184.6</ele></trkpt>
      <trkpt lat="44.326394" lon="9.298205"><ele>184.8</ele></trkpt>
      <trkpt lat="44.326408" lon="9.298183"><ele>185.0</ele></trkpt>
      <trkpt lat="44.326424" lon="9.298159"><ele>185.2</ele></trkpt>
      <trkpt lat="44.326441" lon="9.298133"><ele>185.6</ele></trkpt>
      <trkpt lat="44.326457" lon="9.298108"><ele>185.6</ele></trkpt>
      <trkpt lat="44.326471" lon="9.298081"><ele>186.0</ele></trkpt>
      <trkpt lat="44.326486" lon="9.298058"><ele>186.2</ele></trkpt>
      <trkpt lat="44.326502" lon="9.298034"><ele>186.4</ele></trkpt>
      <trkpt lat="44.326513" lon="9.298011"><ele>186.6</ele></trkpt>
      <trkpt lat="44.326524" lon="9.297996"><ele>186.8</ele></trkpt>
      <trkpt lat="44.326535" lon="9.297977"><ele>187.0</ele></trkpt>
      <trkpt lat="44.326551" lon="9.297963"><ele>187.0</ele></trkpt>
      <trkpt lat="44.326562" lon="9.297941"><ele>187.2</ele></trkpt>
      <trkpt lat="44.326572" lon="9.297915"><ele>187.2</ele></trkpt>
      <trkpt lat="44.326583" lon="9.297892"><ele>187.4</ele></trkpt>
      <trkpt lat="44.326597" lon="9.297866"><ele>187.6</ele></trkpt>
      <trkpt lat="44.326613" lon="9.297840"><ele>187.6</ele></trkpt>
      <trkpt lat="44.326628" lon="9.297811"><ele>187.8</ele></trkpt>
      <trkpt lat="44.326642" lon="9.297782"><ele>188.0</ele></trkpt>
      <trkpt lat="44.326656" lon="9.297752"><ele>188.2</ele></trkpt>
      <trkpt lat="44.326667" lon="9.297718"><ele>188.4</ele></trkpt>
      <trkpt lat="44.326683" lon="9.297684"><ele>188.4</ele></trkpt>
      <trkpt lat="44.326697" lon="9.297653"><ele>188.4</ele></trkpt>
      <trkpt lat="44.326712" lon="9.297623"><ele>188.6</ele></trkpt>
      <trkpt lat="44.326725" lon="9.297589"><ele>188.6</ele></trkpt>
      <trkpt lat="44.326736" lon="9.297553"><ele>188.6</ele></trkpt>
      <trkpt lat="44.326750" lon="9.297518"><ele>188.8</ele></trkpt>
      <trkpt lat="44.326762" lon="9.297481"><ele>188.8</ele></trkpt>
      <trkpt lat="44.326772" lon="9.297441"><ele>189.0</ele></trkpt>
      <trkpt lat="44.326780" lon="9.297402"><ele>189.0</ele></trkpt>
      <trkpt lat="44.326786" lon="9.297364"><ele>189.2</ele></trkpt>
      <trkpt lat="44.326791" lon="9.297332"><ele>189.2</ele></trkpt>
      <trkpt lat="44.326800" lon="9.297302"><ele>189.4</ele></trkpt>
      <trkpt lat="44.326808" lon="9.297267"><ele>189.4</ele></trkpt>
      <trkpt lat="44.326816" lon="9.297232"><ele>189.4</ele></trkpt>
      <trkpt lat="44.326823" lon="9.297193"><ele>189.6</ele></trkpt>
      <trkpt lat="44.326831" lon="9.297151"><ele>189.6</ele></trkpt>
      <trkpt lat="44.326839" lon="9.297108"><ele>189.6</ele></trkpt>
      <trkpt lat="44.326848" lon="9.297066"><ele>189.6</ele></trkpt>
      <trkpt lat="44.326857" lon="9.297023"><ele>189.8</ele></trkpt>
      <trkpt lat="44.326869" lon="9.296980"><ele>189.8</ele></trkpt>
      <trkpt lat="44.326880" lon="9.296939"><ele>189.8</ele></trkpt>
      <trkpt lat="44.326889" lon="9.296897"><ele>190.0</ele></trkpt>
      <trkpt lat="44.326900" lon="9.296852"><ele>190.0</ele></trkpt>
      <trkpt lat="44.326912" lon="9.296806"><ele>190.2</ele></trkpt>
      <trkpt lat="44.326923" lon="9.296758"><ele>190.2</ele></trkpt>
      <trkpt lat="44.326932" lon="9.296710"><ele>190.4</ele></trkpt>
      <trkpt lat="44.326943" lon="9.296663"><ele>190.6</ele></trkpt>
      <trkpt lat="44.326955" lon="9.296613"><ele>190.6</ele></trkpt>
      <trkpt lat="44.326968" lon="9.296563"><ele>190.8</ele></trkpt>
      <trkpt lat="44.326979" lon="9.296512"><ele>190.8</ele></trkpt>
      <trkpt lat="44.326991" lon="9.296464"><ele>191.0</ele></trkpt>
      <trkpt lat="44.327001" lon="9.296417"><ele>191.0</ele></trkpt>
      <trkpt lat="44.327011" lon="9.296366"><ele>191.2</ele></trkpt>
      <trkpt lat="44.327018" lon="9.296315"><ele>191.2</ele></trkpt>
      <trkpt lat="44.327027" lon="9.296269"><ele>191.4</ele></trkpt>
      <trkpt lat="44.327039" lon="9.296234"><ele>191.6</ele></trkpt>
      <trkpt lat="44.327048" lon="9.296202"><ele>191.8</ele></trkpt>
      <trkpt lat="44.327057" lon="9.296169"><ele>192.0</ele></trkpt>
      <trkpt lat="44.327064" lon="9.296137"><ele>192.0</ele></trkpt>
      <trkpt lat="44.327069" lon="9.296101"><ele>192.0</ele></trkpt>
      <trkpt lat="44.327077" lon="9.296062"><ele>192.2</ele></trkpt>
      <trkpt lat="44.327085" lon="9.296028"><ele>192.2</ele></trkpt>
      <trkpt lat="44.327095" lon="9.295986"><ele>192.2</ele></trkpt>
      <trkpt lat="44.327103" lon="9.295943"><ele>192.4</ele></trkpt>
      <trkpt lat="44.327113" lon="9.295897"><ele>192.4</ele></trkpt>
      <trkpt lat="44.327124" lon="9.295857"><ele>192.4</ele></trkpt>
      <trkpt lat="44.327131" lon="9.295817"><ele>192.6</ele></trkpt>
      <trkpt lat="44.327142" lon="9.295774"><ele>192.6</ele></trkpt>
      <trkpt lat="44.327155" lon="9.295734"><ele>192.8</ele></trkpt>
      <trkpt lat="44.327167" lon="9.295692"><ele>193.0</ele></trkpt>
      <trkpt lat="44.327180" lon="9.295650"><ele>193.0</ele></trkpt>
      <trkpt lat="44.327195" lon="9.295604"><ele>193.2</ele></trkpt>
      <trkpt lat="44.327208" lon="9.295559"><ele>193.4</ele></trkpt>
      <trkpt lat="44.327221" lon="9.295511"><ele>193.4</ele></trkpt>
      <trkpt lat="44.327234" lon="9.295461"><ele>193.6</ele></trkpt>
      <trkpt lat="44.327246" lon="9.295411"><ele>193.6</ele></trkpt>
      <trkpt lat="44.327260" lon="9.295361"><ele>193.8</ele></trkpt>
      <trkpt lat="44.327274" lon="9.295313"><ele>193.8</ele></trkpt>
      <trkpt lat="44.327289" lon="9.295263"><ele>194.0</ele></trkpt>
      <trkpt lat="44.327300" lon="9.295213"><ele>194.2</ele></trkpt>
      <trkpt lat="44.327313" lon="9.295169"><ele>194.4</ele></trkpt>
      <trkpt lat="44.327322" lon="9.295130"><ele>194.6</ele></trkpt>
      <trkpt lat="44.327330" lon="9.295099"><ele>194.8</ele></trkpt>
      <trkpt lat="44.327335" lon="9.295060"><ele>195.0</ele></trkpt>
      <trkpt lat="44.327340" lon="9.295018"><ele>195.0</ele></trkpt>
      <trkpt lat="44.327341" lon="9.294973"><ele>195.2</ele></trkpt>
      <trkpt lat="44.327340" lon="9.294927"><ele>195.2</ele></trkpt>
      <trkpt lat="44.327335" lon="9.294882"><ele>195.4</ele></trkpt>
      <trkpt lat="44.327326" lon="9.294836"><ele>195.4</ele></trkpt>
      <trkpt lat="44.327315" lon="9.294789"><ele>195.4</ele></trkpt>
      <trkpt lat="44.327302" lon="9.294741"><ele>195.4</ele></trkpt>
      <trkpt lat="44.327281" lon="9.294697"><ele>195.6</ele></trkpt>
      <trkpt lat="44.327258" lon="9.294657"><ele>195.6</ele></trkpt>
      <trkpt lat="44.327236" lon="9.294617"><ele>195.6</ele></trkpt>
      <trkpt lat="44.327216" lon="9.294576"><ele>195.4</ele></trkpt>
      <trkpt lat="44.327200" lon="9.294537"><ele>195.6</ele></trkpt>
      <trkpt lat="44.327193" lon="9.294496"><ele>195.6</ele></trkpt>
      <trkpt lat="44.327182" lon="9.294458"><ele>195.4</ele></trkpt>
      <trkpt lat="44.327173" lon="9.294423"><ele>195.4</ele></trkpt>
      <trkpt lat="44.327165" lon="9.294389"><ele>195.4</ele></trkpt>
      <trkpt lat="44.327160" lon="9.294352"><ele>195.4</ele></trkpt>
      <trkpt lat="44.327154" lon="9.294315"><ele>195.4</ele></trkpt>
      <trkpt lat="44.327154" lon="9.294275"><ele>195.4</ele></trkpt>
      <trkpt lat="44.327156" lon="9.294228"><ele>195.4</ele></trkpt>
      <trkpt lat="44.327159" lon="9.294184"><ele>195.2</ele></trkpt>
      <trkpt lat="44.327168" lon="9.294134"><ele>195.2</ele></trkpt>
      <trkpt lat="44.327180" lon="9.294087"><ele>195.2</ele></trkpt>
      <trkpt lat="44.327189" lon="9.294038"><ele>195.2</ele></trkpt>
      <trkpt lat="44.327203" lon="9.293995"><ele>195.2</ele></trkpt>
      <trkpt lat="44.327216" lon="9.293948"><ele>195.2</ele></trkpt>
    </trkseg>
  </trk>
</gpx>
