<?xml version="1.0" encoding="UTF-8"?>
<gpx version="1.1" creator="strava_segment_to_gpx"
     xmlns="http://www.topografix.com/GPX/1/1">
  <trk>
    <name>Passo Campolongo (Corvara)</name>
    <trkseg>
      <trkpt lat="46.544857" lon="11.875639"><ele>1586.2</ele></trkpt>
      <trkpt lat="46.544823" lon="11.875659"><ele>1586.3</ele></trkpt>
      <trkpt lat="46.544792" lon="11.875709"><ele>1586.4</ele></trkpt>
      <trkpt lat="46.544769" lon="11.875775"><ele>1586.6</ele></trkpt>
      <trkpt lat="46.544750" lon="11.875859"><ele>1586.8</ele></trkpt>
      <trkpt lat="46.544746" lon="11.875923"><ele>1587.0</ele></trkpt>
      <trkpt lat="46.544758" lon="11.875992"><ele>1587.4</ele></trkpt>
      <trkpt lat="46.544788" lon="11.876085"><ele>1588.2</ele></trkpt>
      <trkpt lat="46.544827" lon="11.876165"><ele>1589.0</ele></trkpt>
      <trkpt lat="46.544853" lon="11.876214"><ele>1589.5</ele></trkpt>
      <trkpt lat="46.544888" lon="11.876292"><ele>1590.2</ele></trkpt>
      <trkpt lat="46.544918" lon="11.876338"><ele>1590.7</ele></trkpt>
      <trkpt lat="46.544968" lon="11.876411"><ele>1591.4</ele></trkpt>
      <trkpt lat="46.544998" lon="11.876523"><ele>1592.2</ele></trkpt>
      <trkpt lat="46.545010" lon="11.876622"><ele>1592.8</ele></trkpt>
      <trkpt lat="46.544979" lon="11.876705"><ele>1593.3</ele></trkpt>
      <trkpt lat="46.544937" lon="11.876778"><ele>1593.6</ele></trkpt>
      <trkpt lat="46.544876" lon="11.876834"><ele>1593.8</ele></trkpt>
      <trkpt lat="46.544838" lon="11.876852"><ele>1593.9</ele></trkpt>
      <trkpt lat="46.544800" lon="11.876852"><ele>1594.0</ele></trkpt>
      <trkpt lat="46.544746" lon="11.876819"><ele>1594.1</ele></trkpt>
      <trkpt lat="46.544712" lon="11.876789"><ele>1594.2</ele></trkpt>
      <trkpt lat="46.544666" lon="11.876742"><ele>1594.3</ele></trkpt>
      <trkpt lat="46.544609" lon="11.876692"><ele>1594.4</ele></trkpt>
      <trkpt lat="46.544575" lon="11.876660"><ele>1594.5</ele></trkpt>
      <trkpt lat="46.544514" lon="11.876617"><ele>1594.6</ele></trkpt>
      <trkpt lat="46.544476" lon="11.876589"><ele>1594.7</ele></trkpt>
      <trkpt lat="46.544418" lon="11.876557"><ele>1594.9</ele></trkpt>
      <trkpt lat="46.544353" lon="11.876536"><ele>1595.3</ele></trkpt>
      <trkpt lat="46.544312" lon="11.876532"><ele>1595.5</ele></trkpt>
      <trkpt lat="46.544247" lon="11.876553"><ele>1596.1</ele></trkpt>
      <trkpt lat="46.544193" lon="11.876605"><ele>1596.7</ele></trkpt>
      <trkpt lat="46.544186" lon="11.876666"><ele>1597.2</ele></trkpt>
      <trkpt lat="46.544201" lon="11.876729"><ele>1597.7</ele></trkpt>
      <trkpt lat="46.544228" lon="11.876825"><ele>1598.5</ele></trkpt>
      <trkpt lat="46.544262" lon="11.876921"><ele>1599.4</ele></trkpt>
      <trkpt lat="46.544300" lon="11.877015"><ele>1600.2</ele></trkpt>
      <trkpt lat="46.544331" lon="11.877099"><ele>1600.9</ele></trkpt>
      <trkpt lat="46.544346" lon="11.877158"><ele>1601.3</ele></trkpt>
      <trkpt lat="46.544353" lon="11.877256"><ele>1601.9</ele></trkpt>
      <trkpt lat="46.544365" lon="11.877362"><ele>1602.6</ele></trkpt>
      <trkpt lat="46.544373" lon="11.877430"><ele>1603.0</ele></trkpt>
      <trkpt lat="46.544376" lon="11.877516"><ele>1603.6</ele></trkpt>
      <trkpt lat="46.544376" lon="11.877576"><ele>1604.0</ele></trkpt>
      <trkpt lat="46.544376" lon="11.877640"><ele>1604.4</ele></trkpt>
      <trkpt lat="46.544380" lon="11.877739"><ele>1605.1</ele></trkpt>
      <trkpt lat="46.544369" lon="11.877789"><ele>1605.5</ele></trkpt>
      <trkpt lat="46.544361" lon="11.877863"><ele>1606.0</ele></trkpt>
      <trkpt lat="46.544346" lon="11.877931"><ele>1606.6</ele></trkpt>
      <trkpt lat="46.544342" lon="11.878003"><ele>1607.1</ele></trkpt>
      <trkpt lat="46.544342" lon="11.878087"><ele>1607.8</ele></trkpt>
      <trkpt lat="46.544342" lon="11.878160"><ele>1608.3</ele></trkpt>
      <trkpt lat="46.544342" lon="11.878237"><ele>1608.9</ele></trkpt>
      <trkpt lat="46.544346" lon="11.878320"><ele>1609.5</ele></trkpt>
      <trkpt lat="46.544353" lon="11.878390"><ele>1609.9</ele></trkpt>
      <trkpt lat="46.544353" lon="11.878477"><ele>1610.5</ele></trkpt>
      <trkpt lat="46.544342" lon="11.878569"><ele>1611.0</ele></trkpt>
      <trkpt lat="46.544331" lon="11.878648"><ele>1611.5</ele></trkpt>
      <trkpt lat="46.544296" lon="11.878719"><ele>1612.0</ele></trkpt>
      <trkpt lat="46.544235" lon="11.878759"><ele>1612.5</ele></trkpt>
      <trkpt lat="46.544170" lon="11.878757"><ele>1613.0</ele></trkpt>
      <trkpt lat="46.544136" lon="11.878729"><ele>1613.2</ele></trkpt>
      <trkpt lat="46.544090" lon="11.878664"><ele>1613.7</ele></trkpt>
      <trkpt lat="46.544071" lon="11.878613"><ele>1613.9</ele></trkpt>
      <trkpt lat="46.544056" lon="11.878560"><ele>1614.1</ele></trkpt>
      <trkpt lat="46.544037" lon="11.878491"><ele>1614.4</ele></trkpt>
      <trkpt lat="46.544025" lon="11.878441"><ele>1614.6</ele></trkpt>
      <trkpt lat="46.544018" lon="11.878383"><ele>1614.9</ele></trkpt>
      <trkpt lat="46.543991" lon="11.878282"><ele>1615.3</ele></trkpt>
      <trkpt lat="46.543972" lon="11.878212"><ele>1615.6</ele></trkpt>
      <trkpt lat="46.543957" lon="11.878128"><ele>1615.9</ele></trkpt>
      <trkpt lat="46.543953" lon="11.878078"><ele>1616.1</ele></trkpt>
      <trkpt lat="46.543941" lon="11.878026"><ele>1616.3</ele></trkpt>
      <trkpt lat="46.543926" lon="11.877934"><ele>1616.7</ele></trkpt>
      <trkpt lat="46.543911" lon="11.877856"><ele>1617.0</ele></trkpt>
      <trkpt lat="46.543888" lon="11.877786"><ele>1617.3</ele></trkpt>
      <trkpt lat="46.543865" lon="11.877741"><ele>1617.5</ele></trkpt>
      <trkpt lat="46.543831" lon="11.877670"><ele>1617.9</ele></trkpt>
      <trkpt lat="46.543797" lon="11.877631"><ele>1618.1</ele></trkpt>
      <trkpt lat="46.543758" lon="11.877609"><ele>1618.3</ele></trkpt>
      <trkpt lat="46.543705" lon="11.877590"><ele>1618.6</ele></trkpt>
      <trkpt lat="46.543663" lon="11.877588"><ele>1618.8</ele></trkpt>
      <trkpt lat="46.543594" lon="11.877600"><ele>1619.1</ele></trkpt>
      <trkpt lat="46.543556" lon="11.877615"><ele>1619.2</ele></trkpt>
      <trkpt lat="46.543530" lon="11.877636"><ele>1619.2</ele></trkpt>
      <trkpt lat="46.543484" lon="11.877685"><ele>1619.4</ele></trkpt>
      <trkpt lat="46.543453" lon="11.877713"><ele>1619.5</ele></trkpt>
      <trkpt lat="46.543434" lon="11.877759"><ele>1619.5</ele></trkpt>
      <trkpt lat="46.543411" lon="11.877807"><ele>1619.6</ele></trkpt>
      <trkpt lat="46.543377" lon="11.877870"><ele>1619.9</ele></trkpt>
      <trkpt lat="46.543362" lon="11.877910"><ele>1620.0</ele></trkpt>
      <trkpt lat="46.543346" lon="11.877960"><ele>1620.1</ele></trkpt>
      <trkpt lat="46.543327" lon="11.878031"><ele>1620.4</ele></trkpt>
      <trkpt lat="46.543308" lon="11.878082"><ele>1620.7</ele></trkpt>
      <trkpt lat="46.543297" lon="11.878151"><ele>1621.2</ele></trkpt>
      <trkpt lat="46.543289" lon="11.878212"><ele>1621.6</ele></trkpt>
      <trkpt lat="46.543293" lon="11.878317"><ele>1622.4</ele></trkpt>
      <trkpt lat="46.543308" lon="11.878396"><ele>1623.1</ele></trkpt>
      <trkpt lat="46.543339" lon="11.878512"><ele>1624.0</ele></trkpt>
      <trkpt lat="46.543362" lon="11.878625"><ele>1624.9</ele></trkpt>
      <trkpt lat="46.543388" lon="11.878725"><ele>1625.8</ele></trkpt>
      <trkpt lat="46.543404" lon="11.878787"><ele>1626.3</ele></trkpt>
      <trkpt lat="46.543430" lon="11.878897"><ele>1627.1</ele></trkpt>
      <trkpt lat="46.543442" lon="11.878972"><ele>1627.7</ele></trkpt>
      <trkpt lat="46.543453" lon="11.879049"><ele>1628.3</ele></trkpt>
      <trkpt lat="46.543453" lon="11.879125"><ele>1628.9</ele></trkpt>
      <trkpt lat="46.543438" lon="11.879242"><ele>1629.8</ele></trkpt>
      <trkpt lat="46.543419" lon="11.879351"><ele>1630.6</ele></trkpt>
      <trkpt lat="46.543385" lon="11.879461"><ele>1631.5</ele></trkpt>
      <trkpt lat="46.543343" lon="11.879555"><ele>1632.4</ele></trkpt>
      <trkpt lat="46.543304" lon="11.879654"><ele>1633.2</ele></trkpt>
      <trkpt lat="46.543282" lon="11.879706"><ele>1633.7</ele></trkpt>
      <trkpt lat="46.543255" lon="11.879752"><ele>1634.2</ele></trkpt>
      <trkpt lat="46.543217" lon="11.879829"><ele>1634.9</ele></trkpt>
      <trkpt lat="46.543194" lon="11.879880"><ele>1635.3</ele></trkpt>
      <trkpt lat="46.543163" lon="11.879965"><ele>1636.0</ele></trkpt>
      <trkpt lat="46.543148" lon="11.880031"><ele>1636.5</ele></trkpt>
      <trkpt lat="46.543118" lon="11.880114"><ele>1637.2</ele></trkpt>
      <trkpt lat="46.543102" lon="11.880166"><ele>1637.5</ele></trkpt>
      <trkpt lat="46.543083" lon="11.880216"><ele>1637.8</ele></trkpt>
      <trkpt lat="46.543045" lon="11.880270"><ele>1638.1</ele></trkpt>
      <trkpt lat="46.542992" lon="11.880284"><ele>1638.4</ele></trkpt>
      <trkpt lat="46.542934" lon="11.880259"><ele>1638.7</ele></trkpt>
      <trkpt lat="46.542900" lon="11.880227"><ele>1638.9</ele></trkpt>
      <trkpt lat="46.542854" lon="11.880164"><ele>1639.1</ele></trkpt>
      <trkpt lat="46.542831" lon="11.880109"><ele>1639.3</ele></trkpt>
      <trkpt lat="46.542809" lon="11.880048"><ele>1639.5</ele></trkpt>
      <trkpt lat="46.542786" lon="11.879972"><ele>1640.0</ele></trkpt>
      <trkpt lat="46.542767" lon="11.879894"><ele>1640.4</ele></trkpt>
      <trkpt lat="46.542747" lon="11.879852"><ele>1640.7</ele></trkpt>
      <trkpt lat="46.542744" lon="11.879809"><ele>1640.9</ele></trkpt>
      <trkpt lat="46.542736" lon="11.879734"><ele>1641.3</ele></trkpt>
      <trkpt lat="46.542728" lon="11.879650"><ele>1641.8</ele></trkpt>
      <trkpt lat="46.542725" lon="11.879566"><ele>1642.3</ele></trkpt>
      <trkpt lat="46.542709" lon="11.879498"><ele>1642.7</ele></trkpt>
      <trkpt lat="46.542690" lon="11.879464"><ele>1642.9</ele></trkpt>
      <trkpt lat="46.542667" lon="11.879414"><ele>1643.3</ele></trkpt>
      <trkpt lat="46.542625" lon="11.879374"><ele>1643.7</ele></trkpt>
      <trkpt lat="46.542591" lon="11.879354"><ele>1644.0</ele></trkpt>
      <trkpt lat="46.542561" lon="11.879334"><ele>1644.3</ele></trkpt>
      <trkpt lat="46.542503" lon="11.879327"><ele>1644.9</ele></trkpt>
      <trkpt lat="46.542446" lon="11.879334"><ele>1645.4</ele></trkpt>
      <trkpt lat="46.542389" lon="11.879344"><ele>1646.0</ele></trkpt>
      <trkpt lat="46.542355" lon="11.879360"><ele>1646.4</ele></trkpt>
      <trkpt lat="46.542305" lon="11.879409"><ele>1647.1</ele></trkpt>
      <trkpt lat="46.542259" lon="11.879473"><ele>1647.8</ele></trkpt>
      <trkpt lat="46.542236" lon="11.879517"><ele>1648.3</ele></trkpt>
      <trkpt lat="46.542213" lon="11.879588"><ele>1648.9</ele></trkpt>
      <trkpt lat="46.542210" lon="11.879670"><ele>1649.4</ele></trkpt>
      <trkpt lat="46.542221" lon="11.879754"><ele>1650.2</ele></trkpt>
      <trkpt lat="46.542244" lon="11.879831"><ele>1651.1</ele></trkpt>
      <trkpt lat="46.542252" lon="11.879882"><ele>1651.6</ele></trkpt>
      <trkpt lat="46.542255" lon="11.879965"><ele>1652.5</ele></trkpt>
      <trkpt lat="46.542267" lon="11.880016"><ele>1653.0</ele></trkpt>
      <trkpt lat="46.542271" lon="11.880096"><ele>1653.8</ele></trkpt>
      <trkpt lat="46.542263" lon="11.880178"><ele>1654.5</ele></trkpt>
      <trkpt lat="46.542255" lon="11.880232"><ele>1654.9</ele></trkpt>
      <trkpt lat="46.542252" lon="11.880315"><ele>1655.6</ele></trkpt>
      <trkpt lat="46.542248" lon="11.880366"><ele>1656.0</ele></trkpt>
      <trkpt lat="46.542240" lon="11.880452"><ele>1656.6</ele></trkpt>
      <trkpt lat="46.542229" lon="11.880541"><ele>1657.2</ele></trkpt>
      <trkpt lat="46.542217" lon="11.880632"><ele>1657.8</ele></trkpt>
      <trkpt lat="46.542202" lon="11.880725"><ele>1658.3</ele></trkpt>
      <trkpt lat="46.542187" lon="11.880786"><ele>1658.7</ele></trkpt>
      <trkpt lat="46.542171" lon="11.880836"><ele>1659.0</ele></trkpt>
      <trkpt lat="46.542160" lon="11.880915"><ele>1659.5</ele></trkpt>
      <trkpt lat="46.542152" lon="11.880964"><ele>1659.7</ele></trkpt>
      <trkpt lat="46.542149" lon="11.881015"><ele>1660.0</ele></trkpt>
      <trkpt lat="46.542141" lon="11.881061"><ele>1660.2</ele></trkpt>
      <trkpt lat="46.542130" lon="11.881136"><ele>1660.6</ele></trkpt>
      <trkpt lat="46.542122" lon="11.881182"><ele>1660.9</ele></trkpt>
      <trkpt lat="46.542118" lon="11.881227"><ele>1661.1</ele></trkpt>
      <trkpt lat="46.542114" lon="11.881278"><ele>1661.3</ele></trkpt>
      <trkpt lat="46.542110" lon="11.881317"><ele>1661.5</ele></trkpt>
      <trkpt lat="46.542072" lon="11.881364"><ele>1661.8</ele></trkpt>
      <trkpt lat="46.542057" lon="11.881420"><ele>1662.1</ele></trkpt>
      <trkpt lat="46.542057" lon="11.881484"><ele>1662.4</ele></trkpt>
      <trkpt lat="46.542057" lon="11.881575"><ele>1662.8</ele></trkpt>
      <trkpt lat="46.542049" lon="11.881651"><ele>1663.1</ele></trkpt>
      <trkpt lat="46.542049" lon="11.881729"><ele>1663.5</ele></trkpt>
      <trkpt lat="46.542049" lon="11.881785"><ele>1663.7</ele></trkpt>
      <trkpt lat="46.542046" lon="11.881865"><ele>1664.0</ele></trkpt>
      <trkpt lat="46.542049" lon="11.881917"><ele>1664.3</ele></trkpt>
      <trkpt lat="46.542038" lon="11.881988"><ele>1664.6</ele></trkpt>
      <trkpt lat="46.542023" lon="11.882063"><ele>1665.0</ele></trkpt>
      <trkpt lat="46.542000" lon="11.882121"><ele>1665.4</ele></trkpt>
      <trkpt lat="46.541969" lon="11.882139"><ele>1665.7</ele></trkpt>
      <trkpt lat="46.541927" lon="11.882121"><ele>1666.1</ele></trkpt>
      <trkpt lat="46.541889" lon="11.882055"><ele>1666.7</ele></trkpt>
      <trkpt lat="46.541855" lon="11.881985"><ele>1667.4</ele></trkpt>
      <trkpt lat="46.541824" lon="11.881914"><ele>1668.0</ele></trkpt>
      <trkpt lat="46.541794" lon="11.881848"><ele>1668.6</ele></trkpt>
      <trkpt lat="46.541775" lon="11.881806"><ele>1668.9</ele></trkpt>
      <trkpt lat="46.541737" lon="11.881748"><ele>1669.5</ele></trkpt>
      <trkpt lat="46.541706" lon="11.881718"><ele>1669.9</ele></trkpt>
      <trkpt lat="46.541653" lon="11.881680"><ele>1670.6</ele></trkpt>
      <trkpt lat="46.541595" lon="11.881659"><ele>1671.2</ele></trkpt>
      <trkpt lat="46.541531" lon="11.881669"><ele>1672.0</ele></trkpt>
      <trkpt lat="46.541496" lon="11.881699"><ele>1672.5</ele></trkpt>
      <trkpt lat="46.541466" lon="11.881738"><ele>1672.9</ele></trkpt>
      <trkpt lat="46.541424" lon="11.881817"><ele>1673.8</ele></trkpt>
      <trkpt lat="46.541405" lon="11.881870"><ele>1674.3</ele></trkpt>
      <trkpt lat="46.541389" lon="11.881948"><ele>1674.9</ele></trkpt>
      <trkpt lat="46.541389" lon="11.882031"><ele>1675.6</ele></trkpt>
      <trkpt lat="46.541401" lon="11.882084"><ele>1676.0</ele></trkpt>
      <trkpt lat="46.541420" lon="11.882162"><ele>1676.5</ele></trkpt>
      <trkpt lat="46.541435" lon="11.882206"><ele>1676.9</ele></trkpt>
      <trkpt lat="46.541447" lon="11.882252"><ele>1677.2</ele></trkpt>
      <trkpt lat="46.541470" lon="11.882303"><ele>1677.5</ele></trkpt>
      <trkpt lat="46.541508" lon="11.882388"><ele>1678.1</ele></trkpt>
      <trkpt lat="46.541519" lon="11.882442"><ele>1678.5</ele></trkpt>
      <trkpt lat="46.541534" lon="11.882486"><ele>1678.8</ele></trkpt>
      <trkpt lat="46.541546" lon="11.882531"><ele>1679.1</ele></trkpt>
      <trkpt lat="46.541550" lon="11.882604"><ele>1679.5</ele></trkpt>
      <trkpt lat="46.541553" lon="11.882649"><ele>1679.8</ele></trkpt>
      <trkpt lat="46.541538" lon="11.882725"><ele>1680.2</ele></trkpt>
      <trkpt lat="46.541523" lon="11.882776"><ele>1680.6</ele></trkpt>
      <trkpt lat="46.541492" lon="11.882849"><ele>1681.1</ele></trkpt>
      <trkpt lat="46.541466" lon="11.882894"><ele>1681.4</ele></trkpt>
      <trkpt lat="46.541420" lon="11.882958"><ele>1682.0</ele></trkpt>
      <trkpt lat="46.541389" lon="11.883001"><ele>1682.3</ele></trkpt>
      <trkpt lat="46.541363" lon="11.883041"><ele>1682.6</ele></trkpt>
      <trkpt lat="46.541336" lon="11.883096"><ele>1683.0</ele></trkpt>
      <trkpt lat="46.541306" lon="11.883175"><ele>1683.5</ele></trkpt>
      <trkpt lat="46.541283" lon="11.883231"><ele>1683.9</ele></trkpt>
      <trkpt lat="46.541260" lon="11.883288"><ele>1684.2</ele></trkpt>
      <trkpt lat="46.541245" lon="11.883369"><ele>1684.6</ele></trkpt>
      <trkpt lat="46.541241" lon="11.883427"><ele>1684.9</ele></trkpt>
      <trkpt lat="46.541233" lon="11.883502"><ele>1685.3</ele></trkpt>
      <trkpt lat="46.541241" lon="11.883586"><ele>1685.6</ele></trkpt>
      <trkpt lat="46.541252" lon="11.883648"><ele>1685.9</ele></trkpt>
      <trkpt lat="46.541275" lon="11.883747"><ele>1686.3</ele></trkpt>
      <trkpt lat="46.541283" lon="11.883834"><ele>1686.7</ele></trkpt>
      <trkpt lat="46.541283" lon="11.883910"><ele>1686.9</ele></trkpt>
      <trkpt lat="46.541271" lon="11.883959"><ele>1687.1</ele></trkpt>
      <trkpt lat="46.541245" lon="11.884011"><ele>1687.3</ele></trkpt>
      <trkpt lat="46.541210" lon="11.884056"><ele>1687.5</ele></trkpt>
      <trkpt lat="46.541145" lon="11.884095"><ele>1687.7</ele></trkpt>
      <trkpt lat="46.541084" lon="11.884109"><ele>1687.9</ele></trkpt>
      <trkpt lat="46.541016" lon="11.884109"><ele>1688.0</ele></trkpt>
      <trkpt lat="46.540985" lon="11.884108"><ele>1688.0</ele></trkpt>
      <trkpt lat="46.540947" lon="11.884103"><ele>1688.0</ele></trkpt>
      <trkpt lat="46.540874" lon="11.884086"><ele>1688.4</ele></trkpt>
      <trkpt lat="46.540829" lon="11.884074"><ele>1688.6</ele></trkpt>
      <trkpt lat="46.540760" lon="11.884035"><ele>1689.0</ele></trkpt>
      <trkpt lat="46.540710" lon="11.883988"><ele>1689.3</ele></trkpt>
      <trkpt lat="46.540627" lon="11.883933"><ele>1689.8</ele></trkpt>
      <trkpt lat="46.540577" lon="11.883889"><ele>1690.0</ele></trkpt>
      <trkpt lat="46.540482" lon="11.883821"><ele>1690.4</ele></trkpt>
      <trkpt lat="46.540382" lon="11.883761"><ele>1690.8</ele></trkpt>
      <trkpt lat="46.540260" lon="11.883709"><ele>1691.1</ele></trkpt>
      <trkpt lat="46.540112" lon="11.883788"><ele>1691.6</ele></trkpt>
      <trkpt lat="46.539993" lon="11.883904"><ele>1692.2</ele></trkpt>
      <trkpt lat="46.539879" lon="11.884007"><ele>1692.8</ele></trkpt>
      <trkpt lat="46.539803" lon="11.884090"><ele>1693.2</ele></trkpt>
      <trkpt lat="46.539692" lon="11.884170"><ele>1693.6</ele></trkpt>
      <trkpt lat="46.539589" lon="11.884296"><ele>1694.0</ele></trkpt>
      <trkpt lat="46.539536" lon="11.884391"><ele>1694.3</ele></trkpt>
      <trkpt lat="46.539417" lon="11.884474"><ele>1694.8</ele></trkpt>
      <trkpt lat="46.539330" lon="11.884531"><ele>1695.1</ele></trkpt>
      <trkpt lat="46.539207" lon="11.884610"><ele>1695.3</ele></trkpt>
      <trkpt lat="46.539127" lon="11.884664"><ele>1695.5</ele></trkpt>
      <trkpt lat="46.538994" lon="11.884749"><ele>1695.8</ele></trkpt>
      <trkpt lat="46.538902" lon="11.884806"><ele>1695.8</ele></trkpt>
      <trkpt lat="46.538761" lon="11.884894"><ele>1695.9</ele></trkpt>
      <trkpt lat="46.538666" lon="11.884959"><ele>1696.0</ele></trkpt>
      <trkpt lat="46.538563" lon="11.885036"><ele>1696.1</ele></trkpt>
      <trkpt lat="46.538437" lon="11.885179"><ele>1696.3</ele></trkpt>
      <trkpt lat="46.538322" lon="11.885333"><ele>1696.4</ele></trkpt>
      <trkpt lat="46.538227" lon="11.885460"><ele>1696.5</ele></trkpt>
      <trkpt lat="46.538155" lon="11.885540"><ele>1696.5</ele></trkpt>
      <trkpt lat="46.538071" lon="11.885705"><ele>1696.6</ele></trkpt>
      <trkpt lat="46.538044" lon="11.885874"><ele>1696.7</ele></trkpt>
      <trkpt lat="46.538025" lon="11.886006"><ele>1696.8</ele></trkpt>
      <trkpt lat="46.537994" lon="11.886204"><ele>1696.9</ele></trkpt>
      <trkpt lat="46.537937" lon="11.886357"><ele>1697.0</ele></trkpt>
      <trkpt lat="46.537888" lon="11.886429"><ele>1697.2</ele></trkpt>
      <trkpt lat="46.537811" lon="11.886550"><ele>1697.6</ele></trkpt>
      <trkpt lat="46.537758" lon="11.886592"><ele>1697.8</ele></trkpt>
      <trkpt lat="46.537701" lon="11.886620"><ele>1698.3</ele></trkpt>
      <trkpt lat="46.537617" lon="11.886642"><ele>1699.9</ele></trkpt>
      <trkpt lat="46.537567" lon="11.886649"><ele>1700.9</ele></trkpt>
      <trkpt lat="46.537521" lon="11.886658"><ele>1701.8</ele></trkpt>
      <trkpt lat="46.537457" lon="11.886656"><ele>1703.0</ele></trkpt>
      <trkpt lat="46.537346" lon="11.886659"><ele>1705.0</ele></trkpt>
      <trkpt lat="46.537235" lon="11.886662"><ele>1706.0</ele></trkpt>
      <trkpt lat="46.537155" lon="11.886662"><ele>1706.0</ele></trkpt>
      <trkpt lat="46.537075" lon="11.886663"><ele>1706.0</ele></trkpt>
      <trkpt lat="46.536957" lon="11.886673"><ele>1706.0</ele></trkpt>
      <trkpt lat="46.536877" lon="11.886683"><ele>1706.7</ele></trkpt>
      <trkpt lat="46.536800" lon="11.886712"><ele>1707.5</ele></trkpt>
      <trkpt lat="46.536713" lon="11.886804"><ele>1708.5</ele></trkpt>
      <trkpt lat="46.536652" lon="11.886893"><ele>1709.3</ele></trkpt>
      <trkpt lat="46.536613" lon="11.886944"><ele>1709.7</ele></trkpt>
      <trkpt lat="46.536568" lon="11.887007"><ele>1710.3</ele></trkpt>
      <trkpt lat="46.536518" lon="11.887063"><ele>1710.8</ele></trkpt>
      <trkpt lat="46.536484" lon="11.887092"><ele>1711.1</ele></trkpt>
      <trkpt lat="46.536449" lon="11.887113"><ele>1711.4</ele></trkpt>
      <trkpt lat="46.536400" lon="11.887142"><ele>1711.9</ele></trkpt>
      <trkpt lat="46.536366" lon="11.887164"><ele>1712.2</ele></trkpt>
      <trkpt lat="46.536312" lon="11.887201"><ele>1712.7</ele></trkpt>
      <trkpt lat="46.536282" lon="11.887226"><ele>1713.0</ele></trkpt>
      <trkpt lat="46.536255" lon="11.887244"><ele>1713.2</ele></trkpt>
      <trkpt lat="46.536201" lon="11.887265"><ele>1713.7</ele></trkpt>
      <trkpt lat="46.536167" lon="11.887278"><ele>1714.0</ele></trkpt>
      <trkpt lat="46.536129" lon="11.887289"><ele>1714.3</ele></trkpt>
      <trkpt lat="46.536072" lon="11.887309"><ele>1714.9</ele></trkpt>
      <trkpt lat="46.536037" lon="11.887321"><ele>1715.2</ele></trkpt>
      <trkpt lat="46.535984" lon="11.887348"><ele>1715.7</ele></trkpt>
      <trkpt lat="46.535934" lon="11.887372"><ele>1716.2</ele></trkpt>
      <trkpt lat="46.535896" lon="11.887395"><ele>1716.6</ele></trkpt>
      <trkpt lat="46.535839" lon="11.887434"><ele>1717.2</ele></trkpt>
      <trkpt lat="46.535801" lon="11.887459"><ele>1717.6</ele></trkpt>
      <trkpt lat="46.535748" lon="11.887501"><ele>1718.0</ele></trkpt>
      <trkpt lat="46.535690" lon="11.887535"><ele>1718.4</ele></trkpt>
      <trkpt lat="46.535645" lon="11.887551"><ele>1718.7</ele></trkpt>
      <trkpt lat="46.535614" lon="11.887548"><ele>1718.9</ele></trkpt>
      <trkpt lat="46.535568" lon="11.887506"><ele>1719.2</ele></trkpt>
      <trkpt lat="46.535538" lon="11.887434"><ele>1719.6</ele></trkpt>
      <trkpt lat="46.535530" lon="11.887381"><ele>1720.2</ele></trkpt>
      <trkpt lat="46.535549" lon="11.887309"><ele>1720.6</ele></trkpt>
      <trkpt lat="46.535572" lon="11.887264"><ele>1720.9</ele></trkpt>
      <trkpt lat="46.535599" lon="11.887222"><ele>1721.3</ele></trkpt>
      <trkpt lat="46.535648" lon="11.887171"><ele>1721.8</ele></trkpt>
      <trkpt lat="46.535698" lon="11.887115"><ele>1722.3</ele></trkpt>
      <trkpt lat="46.535748" lon="11.887062"><ele>1722.8</ele></trkpt>
      <trkpt lat="46.535770" lon="11.887022"><ele>1723.1</ele></trkpt>
      <trkpt lat="46.535793" lon="11.886979"><ele>1723.4</ele></trkpt>
      <trkpt lat="46.535816" lon="11.886899"><ele>1723.9</ele></trkpt>
      <trkpt lat="46.535805" lon="11.886813"><ele>1724.5</ele></trkpt>
      <trkpt lat="46.535786" lon="11.886753"><ele>1724.9</ele></trkpt>
      <trkpt lat="46.535767" lon="11.886694"><ele>1725.3</ele></trkpt>
      <trkpt lat="46.535709" lon="11.886641"><ele>1725.9</ele></trkpt>
      <trkpt lat="46.535660" lon="11.886641"><ele>1726.3</ele></trkpt>
      <trkpt lat="46.535610" lon="11.886657"><ele>1726.7</ele></trkpt>
      <trkpt lat="46.535561" lon="11.886683"><ele>1727.0</ele></trkpt>
      <trkpt lat="46.535507" lon="11.886720"><ele>1727.3</ele></trkpt>
      <trkpt lat="46.535435" lon="11.886768"><ele>1727.7</ele></trkpt>
      <trkpt lat="46.535385" lon="11.886795"><ele>1728.0</ele></trkpt>
      <trkpt lat="46.535316" lon="11.886827"><ele>1728.4</ele></trkpt>
      <trkpt lat="46.535271" lon="11.886831"><ele>1728.7</ele></trkpt>
      <trkpt lat="46.535191" lon="11.886825"><ele>1729.2</ele></trkpt>
      <trkpt lat="46.535137" lon="11.886811"><ele>1729.5</ele></trkpt>
      <trkpt lat="46.535088" lon="11.886801"><ele>1729.9</ele></trkpt>
      <trkpt lat="46.535011" lon="11.886793"><ele>1730.4</ele></trkpt>
      <trkpt lat="46.534966" lon="11.886786"><ele>1730.7</ele></trkpt>
      <trkpt lat="46.534897" lon="11.886774"><ele>1731.2</ele></trkpt>
      <trkpt lat="46.534824" lon="11.886771"><ele>1731.7</ele></trkpt>
      <trkpt lat="46.534752" lon="11.886771"><ele>1732.2</ele></trkpt>
      <trkpt lat="46.534676" lon="11.886764"><ele>1732.8</ele></trkpt>
      <trkpt lat="46.534630" lon="11.886759"><ele>1733.1</ele></trkpt>
      <trkpt lat="46.534565" lon="11.886759"><ele>1733.5</ele></trkpt>
      <trkpt lat="46.534496" lon="11.886749"><ele>1733.9</ele></trkpt>
      <trkpt lat="46.534431" lon="11.886739"><ele>1734.3</ele></trkpt>
      <trkpt lat="46.534382" lon="11.886728"><ele>1734.6</ele></trkpt>
      <trkpt lat="46.534302" lon="11.886696"><ele>1735.0</ele></trkpt>
      <trkpt lat="46.534252" lon="11.886656"><ele>1735.3</ele></trkpt>
      <trkpt lat="46.534184" lon="11.886584"><ele>1735.7</ele></trkpt>
      <trkpt lat="46.534126" lon="11.886486"><ele>1736.1</ele></trkpt>
      <trkpt lat="46.534092" lon="11.886362"><ele>1736.5</ele></trkpt>
      <trkpt lat="46.534088" lon="11.886270"><ele>1736.7</ele></trkpt>
      <trkpt lat="46.534096" lon="11.886128"><ele>1737.1</ele></trkpt>
      <trkpt lat="46.534103" lon="11.886043"><ele>1737.4</ele></trkpt>
      <trkpt lat="46.534115" lon="11.885962"><ele>1737.6</ele></trkpt>
      <trkpt lat="46.534119" lon="11.885880"><ele>1737.8</ele></trkpt>
      <trkpt lat="46.534119" lon="11.885750"><ele>1738.2</ele></trkpt>
      <trkpt lat="46.534122" lon="11.885660"><ele>1738.4</ele></trkpt>
      <trkpt lat="46.534119" lon="11.885570"><ele>1738.7</ele></trkpt>
      <trkpt lat="46.534122" lon="11.885476"><ele>1738.9</ele></trkpt>
      <trkpt lat="46.534115" lon="11.885410"><ele>1739.1</ele></trkpt>
      <trkpt lat="46.534100" lon="11.885309"><ele>1739.4</ele></trkpt>
      <trkpt lat="46.534061" lon="11.885211"><ele>1739.8</ele></trkpt>
      <trkpt lat="46.534023" lon="11.885154"><ele>1740.0</ele></trkpt>
      <trkpt lat="46.533955" lon="11.885078"><ele>1740.7</ele></trkpt>
      <trkpt lat="46.533909" lon="11.885044"><ele>1741.0</ele></trkpt>
      <trkpt lat="46.533871" lon="11.885014"><ele>1741.4</ele></trkpt>
      <trkpt lat="46.533833" lon="11.884987"><ele>1741.7</ele></trkpt>
      <trkpt lat="46.533772" lon="11.884969"><ele>1742.1</ele></trkpt>
      <trkpt lat="46.533730" lon="11.884954"><ele>1742.4</ele></trkpt>
      <trkpt lat="46.533688" lon="11.884939"><ele>1742.7</ele></trkpt>
      <trkpt lat="46.533623" lon="11.884914"><ele>1743.1</ele></trkpt>
      <trkpt lat="46.533558" lon="11.884878"><ele>1743.6</ele></trkpt>
      <trkpt lat="46.533493" lon="11.884832"><ele>1744.0</ele></trkpt>
      <trkpt lat="46.533428" lon="11.884779"><ele>1744.5</ele></trkpt>
      <trkpt lat="46.533367" lon="11.884724"><ele>1745.0</ele></trkpt>
      <trkpt lat="46.533329" lon="11.884686"><ele>1745.3</ele></trkpt>
      <trkpt lat="46.533283" lon="11.884633"><ele>1745.7</ele></trkpt>
      <trkpt lat="46.533241" lon="11.884563"><ele>1746.2</ele></trkpt>
      <trkpt lat="46.533199" lon="11.884507"><ele>1746.6</ele></trkpt>
      <trkpt lat="46.533157" lon="11.884470"><ele>1747.0</ele></trkpt>
      <trkpt lat="46.533089" lon="11.884406"><ele>1747.7</ele></trkpt>
      <trkpt lat="46.533024" lon="11.884346"><ele>1748.4</ele></trkpt>
      <trkpt lat="46.532974" lon="11.884306"><ele>1748.9</ele></trkpt>
      <trkpt lat="46.532928" lon="11.884266"><ele>1749.4</ele></trkpt>
      <trkpt lat="46.532852" lon="11.884221"><ele>1750.2</ele></trkpt>
      <trkpt lat="46.532803" lon="11.884190"><ele>1750.8</ele></trkpt>
      <trkpt lat="46.532734" lon="11.884157"><ele>1751.5</ele></trkpt>
      <trkpt lat="46.532692" lon="11.884143"><ele>1751.9</ele></trkpt>
      <trkpt lat="46.532650" lon="11.884136"><ele>1752.3</ele></trkpt>
      <trkpt lat="46.532585" lon="11.884137"><ele>1752.9</ele></trkpt>
      <trkpt lat="46.532539" lon="11.884137"><ele>1753.3</ele></trkpt>
      <trkpt lat="46.532467" lon="11.884145"><ele>1754.0</ele></trkpt>
      <trkpt lat="46.532398" lon="11.884168"><ele>1754.6</ele></trkpt>
      <trkpt lat="46.532349" lon="11.884178"><ele>1755.1</ele></trkpt>
      <trkpt lat="46.532299" lon="11.884184"><ele>1755.5</ele></trkpt>
      <trkpt lat="46.532253" lon="11.884192"><ele>1755.9</ele></trkpt>
      <trkpt lat="46.532185" lon="11.884204"><ele>1756.5</ele></trkpt>
      <trkpt lat="46.532135" lon="11.884212"><ele>1756.9</ele></trkpt>
      <trkpt lat="46.532063" lon="11.884223"><ele>1757.6</ele></trkpt>
      <trkpt lat="46.531994" lon="11.884238"><ele>1758.2</ele></trkpt>
      <trkpt lat="46.531933" lon="11.884244"><ele>1758.8</ele></trkpt>
      <trkpt lat="46.531891" lon="11.884245"><ele>1759.2</ele></trkpt>
      <trkpt lat="46.531818" lon="11.884253"><ele>1759.9</ele></trkpt>
      <trkpt lat="46.531776" lon="11.884262"><ele>1760.3</ele></trkpt>
      <trkpt lat="46.531704" lon="11.884274"><ele>1760.9</ele></trkpt>
      <trkpt lat="46.531654" lon="11.884284"><ele>1761.4</ele></trkpt>
      <trkpt lat="46.531605" lon="11.884288"><ele>1761.8</ele></trkpt>
      <trkpt lat="46.531525" lon="11.884284"><ele>1762.4</ele></trkpt>
      <trkpt lat="46.531445" lon="11.884287"><ele>1762.9</ele></trkpt>
      <trkpt lat="46.531380" lon="11.884280"><ele>1763.3</ele></trkpt>
      <trkpt lat="46.531307" lon="11.884264"><ele>1763.5</ele></trkpt>
      <trkpt lat="46.531269" lon="11.884238"><ele>1763.7</ele></trkpt>
      <trkpt lat="46.531235" lon="11.884205"><ele>1763.8</ele></trkpt>
      <trkpt lat="46.531185" lon="11.884167"><ele>1763.9</ele></trkpt>
      <trkpt lat="46.531151" lon="11.884132"><ele>1764.1</ele></trkpt>
      <trkpt lat="46.531113" lon="11.884088"><ele>1764.2</ele></trkpt>
      <trkpt lat="46.531067" lon="11.884010"><ele>1764.3</ele></trkpt>
      <trkpt lat="46.531021" lon="11.883932"><ele>1764.4</ele></trkpt>
      <trkpt lat="46.530983" lon="11.883854"><ele>1764.5</ele></trkpt>
      <trkpt lat="46.530956" lon="11.883803"><ele>1764.5</ele></trkpt>
      <trkpt lat="46.530930" lon="11.883753"><ele>1764.6</ele></trkpt>
      <trkpt lat="46.530895" lon="11.883702"><ele>1764.6</ele></trkpt>
      <trkpt lat="46.530849" lon="11.883623"><ele>1764.7</ele></trkpt>
      <trkpt lat="46.530804" lon="11.883541"><ele>1764.8</ele></trkpt>
      <trkpt lat="46.530754" lon="11.883461"><ele>1764.8</ele></trkpt>
      <trkpt lat="46.530716" lon="11.883406"><ele>1765.0</ele></trkpt>
      <trkpt lat="46.530659" lon="11.883321"><ele>1765.2</ele></trkpt>
      <trkpt lat="46.530617" lon="11.883264"><ele>1765.5</ele></trkpt>
      <trkpt lat="46.530579" lon="11.883207"><ele>1765.7</ele></trkpt>
      <trkpt lat="46.530540" lon="11.883150"><ele>1766.0</ele></trkpt>
      <trkpt lat="46.530472" lon="11.883050"><ele>1766.4</ele></trkpt>
      <trkpt lat="46.530403" lon="11.882962"><ele>1766.7</ele></trkpt>
      <trkpt lat="46.530350" lon="11.882895"><ele>1767.0</ele></trkpt>
      <trkpt lat="46.530296" lon="11.882829"><ele>1767.2</ele></trkpt>
      <trkpt lat="46.530239" lon="11.882753"><ele>1767.6</ele></trkpt>
      <trkpt lat="46.530174" lon="11.882676"><ele>1768.0</ele></trkpt>
      <trkpt lat="46.530125" lon="11.882617"><ele>1768.3</ele></trkpt>
      <trkpt lat="46.530052" lon="11.882531"><ele>1768.8</ele></trkpt>
      <trkpt lat="46.530006" lon="11.882471"><ele>1769.1</ele></trkpt>
      <trkpt lat="46.529942" lon="11.882384"><ele>1769.6</ele></trkpt>
      <trkpt lat="46.529877" lon="11.882296"><ele>1770.1</ele></trkpt>
      <trkpt lat="46.529831" lon="11.882234"><ele>1770.5</ele></trkpt>
      <trkpt lat="46.529758" lon="11.882139"><ele>1771.2</ele></trkpt>
      <trkpt lat="46.529686" lon="11.882041"><ele>1771.9</ele></trkpt>
      <trkpt lat="46.529617" lon="11.881958"><ele>1772.6</ele></trkpt>
      <trkpt lat="46.529572" lon="11.881908"><ele>1773.1</ele></trkpt>
      <trkpt lat="46.529533" lon="11.881856"><ele>1773.6</ele></trkpt>
      <trkpt lat="46.529495" lon="11.881809"><ele>1774.0</ele></trkpt>
      <trkpt lat="46.529438" lon="11.881743"><ele>1774.7</ele></trkpt>
      <trkpt lat="46.529404" lon="11.881696"><ele>1775.1</ele></trkpt>
      <trkpt lat="46.529362" lon="11.881636"><ele>1775.6</ele></trkpt>
      <trkpt lat="46.529324" lon="11.881577"><ele>1776.1</ele></trkpt>
      <trkpt lat="46.529282" lon="11.881520"><ele>1776.6</ele></trkpt>
      <trkpt lat="46.529251" lon="11.881482"><ele>1777.0</ele></trkpt>
      <trkpt lat="46.529205" lon="11.881426"><ele>1777.5</ele></trkpt>
      <trkpt lat="46.529167" lon="11.881365"><ele>1777.9</ele></trkpt>
      <trkpt lat="46.529129" lon="11.881303"><ele>1778.4</ele></trkpt>
      <trkpt lat="46.529091" lon="11.881237"><ele>1778.8</ele></trkpt>
      <trkpt lat="46.529049" lon="11.881171"><ele>1779.3</ele></trkpt>
      <trkpt lat="46.529011" lon="11.881111"><ele>1779.7</ele></trkpt>
      <trkpt lat="46.528988" lon="11.881061"><ele>1780.0</ele></trkpt>
      <trkpt lat="46.528950" lon="11.880987"><ele>1780.5</ele></trkpt>
      <trkpt lat="46.528931" lon="11.880939"><ele>1780.7</ele></trkpt>
      <trkpt lat="46.528885" lon="11.880867"><ele>1781.2</ele></trkpt>
      <trkpt lat="46.528843" lon="11.880801"><ele>1781.7</ele></trkpt>
      <trkpt lat="46.528820" lon="11.880760"><ele>1781.9</ele></trkpt>
      <trkpt lat="46.528790" lon="11.880721"><ele>1782.2</ele></trkpt>
      <trkpt lat="46.528763" lon="11.880683"><ele>1782.5</ele></trkpt>
      <trkpt lat="46.528732" lon="11.880650"><ele>1782.7</ele></trkpt>
      <trkpt lat="46.528687" lon="11.880601"><ele>1783.1</ele></trkpt>
      <trkpt lat="46.528660" lon="11.880573"><ele>1783.3</ele></trkpt>
      <trkpt lat="46.528633" lon="11.880541"><ele>1783.6</ele></trkpt>
      <trkpt lat="46.528603" lon="11.880506"><ele>1783.9</ele></trkpt>
      <trkpt lat="46.528557" lon="11.880449"><ele>1784.3</ele></trkpt>
      <trkpt lat="46.528519" lon="11.880414"><ele>1784.6</ele></trkpt>
      <trkpt lat="46.528488" lon="11.880378"><ele>1784.9</ele></trkpt>
      <trkpt lat="46.528439" lon="11.880316"><ele>1785.4</ele></trkpt>
      <trkpt lat="46.528393" lon="11.880260"><ele>1785.8</ele></trkpt>
      <trkpt lat="46.528370" lon="11.880221"><ele>1786.1</ele></trkpt>
      <trkpt lat="46.528332" lon="11.880170"><ele>1786.5</ele></trkpt>
      <trkpt lat="46.528294" lon="11.880124"><ele>1786.8</ele></trkpt>
      <trkpt lat="46.528252" lon="11.880066"><ele>1787.3</ele></trkpt>
      <trkpt lat="46.528214" lon="11.880009"><ele>1787.7</ele></trkpt>
      <trkpt lat="46.528172" lon="11.879952"><ele>1788.1</ele></trkpt>
      <trkpt lat="46.528130" lon="11.879903"><ele>1788.5</ele></trkpt>
      <trkpt lat="46.528099" lon="11.879874"><ele>1788.8</ele></trkpt>
      <trkpt lat="46.528057" lon="11.879822"><ele>1789.2</ele></trkpt>
      <trkpt lat="46.528030" lon="11.879775"><ele>1789.6</ele></trkpt>
      <trkpt lat="46.527981" lon="11.879712"><ele>1790.1</ele></trkpt>
      <trkpt lat="46.527943" lon="11.879675"><ele>1790.6</ele></trkpt>
      <trkpt lat="46.527889" lon="11.879622"><ele>1791.1</ele></trkpt>
      <trkpt lat="46.527836" lon="11.879562"><ele>1791.8</ele></trkpt>
      <trkpt lat="46.527798" lon="11.879521"><ele>1792.2</ele></trkpt>
      <trkpt lat="46.527760" lon="11.879482"><ele>1792.7</ele></trkpt>
      <trkpt lat="46.527699" lon="11.879425"><ele>1793.3</ele></trkpt>
      <trkpt lat="46.527664" lon="11.879387"><ele>1793.8</ele></trkpt>
      <trkpt lat="46.527615" lon="11.879337"><ele>1794.3</ele></trkpt>
      <trkpt lat="46.527580" lon="11.879308"><ele>1794.7</ele></trkpt>
      <trkpt lat="46.527546" lon="11.879273"><ele>1795.0</ele></trkpt>
      <trkpt lat="46.527493" lon="11.879228"><ele>1795.6</ele></trkpt>
      <trkpt lat="46.527458" lon="11.879200"><ele>1795.9</ele></trkpt>
      <trkpt lat="46.527405" lon="11.879177"><ele>1796.4</ele></trkpt>
      <trkpt lat="46.527359" lon="11.879141"><ele>1796.8</ele></trkpt>
      <trkpt lat="46.527336" lon="11.879112"><ele>1797.1</ele></trkpt>
      <trkpt lat="46.527306" lon="11.879092"><ele>1797.3</ele></trkpt>
      <trkpt lat="46.527271" lon="11.879056"><ele>1797.6</ele></trkpt>
      <trkpt lat="46.527248" lon="11.879032"><ele>1797.9</ele></trkpt>
      <trkpt lat="46.527199" lon="11.878983"><ele>1798.3</ele></trkpt>
      <trkpt lat="46.527138" lon="11.878940"><ele>1798.9</ele></trkpt>
      <trkpt lat="46.527107" lon="11.878914"><ele>1799.2</ele></trkpt>
      <trkpt lat="46.527054" lon="11.878877"><ele>1799.6</ele></trkpt>
      <trkpt lat="46.527012" lon="11.878854"><ele>1800.0</ele></trkpt>
      <trkpt lat="46.526947" lon="11.878817"><ele>1800.5</ele></trkpt>
      <trkpt lat="46.526909" lon="11.878792"><ele>1800.8</ele></trkpt>
      <trkpt lat="46.526848" lon="11.878759"><ele>1801.3</ele></trkpt>
      <trkpt lat="46.526806" lon="11.878731"><ele>1801.6</ele></trkpt>
      <trkpt lat="46.526749" lon="11.878690"><ele>1802.0</ele></trkpt>
      <trkpt lat="46.526711" lon="11.878670"><ele>1802.3</ele></trkpt>
      <trkpt lat="46.526672" lon="11.878647"><ele>1802.6</ele></trkpt>
      <trkpt lat="46.526615" lon="11.878612"><ele>1803.0</ele></trkpt>
      <trkpt lat="46.526581" lon="11.878592"><ele>1803.2</ele></trkpt>
      <trkpt lat="46.526524" lon="11.878554"><ele>1803.7</ele></trkpt>
      <trkpt lat="46.526463" lon="11.878524"><ele>1804.1</ele></trkpt>
      <trkpt lat="46.526424" lon="11.878504"><ele>1804.4</ele></trkpt>
      <trkpt lat="46.526367" lon="11.878471"><ele>1804.9</ele></trkpt>
      <trkpt lat="46.526306" lon="11.878434"><ele>1805.4</ele></trkpt>
      <trkpt lat="46.526260" lon="11.878406"><ele>1805.8</ele></trkpt>
      <trkpt lat="46.526196" lon="11.878366"><ele>1806.3</ele></trkpt>
      <trkpt lat="46.526150" lon="11.878345"><ele>1806.7</ele></trkpt>
      <trkpt lat="46.526112" lon="11.878325"><ele>1807.1</ele></trkpt>
      <trkpt lat="46.526054" lon="11.878294"><ele>1807.6</ele></trkpt>
      <trkpt lat="46.526020" lon="11.878274"><ele>1807.9</ele></trkpt>
      <trkpt lat="46.525986" lon="11.878248"><ele>1808.3</ele></trkpt>
      <trkpt lat="46.525944" lon="11.878222"><ele>1808.7</ele></trkpt>
      <trkpt lat="46.525879" lon="11.878185"><ele>1809.3</ele></trkpt>
      <trkpt lat="46.525818" lon="11.878145"><ele>1809.9</ele></trkpt>
      <trkpt lat="46.525776" lon="11.878105"><ele>1810.3</ele></trkpt>
      <trkpt lat="46.525726" lon="11.878057"><ele>1810.8</ele></trkpt>
      <trkpt lat="46.525673" lon="11.878017"><ele>1811.3</ele></trkpt>
      <trkpt lat="46.525635" lon="11.877987"><ele>1811.7</ele></trkpt>
      <trkpt lat="46.525581" lon="11.877945"><ele>1812.2</ele></trkpt>
      <trkpt lat="46.525543" lon="11.877919"><ele>1812.6</ele></trkpt>
      <trkpt lat="46.525490" lon="11.877879"><ele>1813.1</ele></trkpt>
      <trkpt lat="46.525440" lon="11.877843"><ele>1813.6</ele></trkpt>
      <trkpt lat="46.525410" lon="11.877809"><ele>1813.9</ele></trkpt>
      <trkpt lat="46.525360" lon="11.877749"><ele>1814.4</ele></trkpt>
      <trkpt lat="46.525314" lon="11.877690"><ele>1814.9</ele></trkpt>
      <trkpt lat="46.525288" lon="11.877653"><ele>1815.2</ele></trkpt>
      <trkpt lat="46.525230" lon="11.877592"><ele>1815.8</ele></trkpt>
      <trkpt lat="46.525208" lon="11.877557"><ele>1816.0</ele></trkpt>
      <trkpt lat="46.525166" lon="11.877501"><ele>1816.5</ele></trkpt>
      <trkpt lat="46.525131" lon="11.877439"><ele>1816.8</ele></trkpt>
      <trkpt lat="46.525101" lon="11.877386"><ele>1817.2</ele></trkpt>
      <trkpt lat="46.525055" lon="11.877308"><ele>1817.6</ele></trkpt>
      <trkpt lat="46.525005" lon="11.877240"><ele>1818.0</ele></trkpt>
      <trkpt lat="46.524952" lon="11.877173"><ele>1818.5</ele></trkpt>
      <trkpt lat="46.524899" lon="11.877104"><ele>1818.9</ele></trkpt>
      <trkpt lat="46.524837" lon="11.877031"><ele>1819.4</ele></trkpt>
      <trkpt lat="46.524799" lon="11.876979"><ele>1819.8</ele></trkpt>
      <trkpt lat="46.524734" lon="11.876900"><ele>1820.4</ele></trkpt>
      <trkpt lat="46.524677" lon="11.876821"><ele>1821.0</ele></trkpt>
      <trkpt lat="46.524643" lon="11.876774"><ele>1821.4</ele></trkpt>
      <trkpt lat="46.524609" lon="11.876726"><ele>1821.9</ele></trkpt>
      <trkpt lat="46.524555" lon="11.876659"><ele>1822.5</ele></trkpt>
      <trkpt lat="46.524502" lon="11.876587"><ele>1823.2</ele></trkpt>
      <trkpt lat="46.524452" lon="11.876520"><ele>1823.8</ele></trkpt>
      <trkpt lat="46.524406" lon="11.876459"><ele>1824.4</ele></trkpt>
      <trkpt lat="46.524357" lon="11.876390"><ele>1825.0</ele></trkpt>
      <trkpt lat="46.524323" lon="11.876345"><ele>1825.5</ele></trkpt>
      <trkpt lat="46.524273" lon="11.876279"><ele>1826.1</ele></trkpt>
      <trkpt lat="46.524235" lon="11.876235"><ele>1826.6</ele></trkpt>
      <trkpt lat="46.524178" lon="11.876169"><ele>1827.2</ele></trkpt>
      <trkpt lat="46.524120" lon="11.876108"><ele>1827.8</ele></trkpt>
      <trkpt lat="46.524059" lon="11.876058"><ele>1828.4</ele></trkpt>
      <trkpt lat="46.523991" lon="11.876003"><ele>1829.1</ele></trkpt>
      <trkpt lat="46.523922" lon="11.875953"><ele>1829.7</ele></trkpt>
      <trkpt lat="46.523872" lon="11.875923"><ele>1830.1</ele></trkpt>
      <trkpt lat="46.523830" lon="11.875891"><ele>1830.5</ele></trkpt>
      <trkpt lat="46.523766" lon="11.875849"><ele>1831.0</ele></trkpt>
      <trkpt lat="46.523708" lon="11.875799"><ele>1831.5</ele></trkpt>
      <trkpt lat="46.523651" lon="11.875745"><ele>1831.9</ele></trkpt>
      <trkpt lat="46.523586" lon="11.875704"><ele>1832.4</ele></trkpt>
      <trkpt lat="46.523548" lon="11.875675"><ele>1832.6</ele></trkpt>
      <trkpt lat="46.523506" lon="11.875637"><ele>1832.9</ele></trkpt>
      <trkpt lat="46.523468" lon="11.875594"><ele>1833.2</ele></trkpt>
      <trkpt lat="46.523430" lon="11.875554"><ele>1833.5</ele></trkpt>
      <trkpt lat="46.523373" lon="11.875505"><ele>1833.9</ele></trkpt>
      <trkpt lat="46.523335" lon="11.875471"><ele>1834.1</ele></trkpt>
      <trkpt lat="46.523293" lon="11.875437"><ele>1834.3</ele></trkpt>
      <trkpt lat="46.523232" lon="11.875389"><ele>1834.7</ele></trkpt>
      <trkpt lat="46.523170" lon="11.875335"><ele>1835.0</ele></trkpt>
      <trkpt lat="46.523125" lon="11.875301"><ele>1835.3</ele></trkpt>
      <trkpt lat="46.523060" lon="11.875248"><ele>1835.6</ele></trkpt>
      <trkpt lat="46.523022" lon="11.875207"><ele>1835.8</ele></trkpt>
      <trkpt lat="46.522980" lon="11.875169"><ele>1836.0</ele></trkpt>
      <trkpt lat="46.522907" lon="11.875105"><ele>1836.3</ele></trkpt>
      <trkpt lat="46.522835" lon="11.875036"><ele>1836.5</ele></trkpt>
      <trkpt lat="46.522778" lon="11.874990"><ele>1836.6</ele></trkpt>
      <trkpt lat="46.522720" lon="11.874942"><ele>1836.8</ele></trkpt>
      <trkpt lat="46.522629" lon="11.874872"><ele>1837.0</ele></trkpt>
      <trkpt lat="46.522583" lon="11.874834"><ele>1836.9</ele></trkpt>
      <trkpt lat="46.522526" lon="11.874786"><ele>1836.8</ele></trkpt>
      <trkpt lat="46.522484" lon="11.874748"><ele>1836.8</ele></trkpt>
      <trkpt lat="46.522419" lon="11.874687"><ele>1836.6</ele></trkpt>
      <trkpt lat="46.522377" lon="11.874649"><ele>1836.6</ele></trkpt>
      <trkpt lat="46.522308" lon="11.874587"><ele>1836.5</ele></trkpt>
      <trkpt lat="46.522240" lon="11.874525"><ele>1836.5</ele></trkpt>
      <trkpt lat="46.522160" lon="11.874454"><ele>1836.5</ele></trkpt>
      <trkpt lat="46.522079" lon="11.874380"><ele>1836.6</ele></trkpt>
      <trkpt lat="46.522022" lon="11.874333"><ele>1836.7</ele></trkpt>
      <trkpt lat="46.521969" lon="11.874284"><ele>1836.9</ele></trkpt>
      <trkpt lat="46.521904" lon="11.874232"><ele>1837.0</ele></trkpt>
      <trkpt lat="46.521877" lon="11.874210"><ele>1837.1</ele></trkpt>
      <trkpt lat="46.521824" lon="11.874157"><ele>1837.3</ele></trkpt>
      <trkpt lat="46.521759" lon="11.874101"><ele>1837.6</ele></trkpt>
      <trkpt lat="46.521687" lon="11.874043"><ele>1837.9</ele></trkpt>
      <trkpt lat="46.521614" lon="11.873981"><ele>1838.3</ele></trkpt>
      <trkpt lat="46.521542" lon="11.873922"><ele>1838.6</ele></trkpt>
      <trkpt lat="46.521492" lon="11.873892"><ele>1838.8</ele></trkpt>
      <trkpt lat="46.521442" lon="11.873866"><ele>1839.0</ele></trkpt>
      <trkpt lat="46.521397" lon="11.873839"><ele>1839.2</ele></trkpt>
      <trkpt lat="46.521324" lon="11.873807"><ele>1839.5</ele></trkpt>
      <trkpt lat="46.521244" lon="11.873796"><ele>1839.8</ele></trkpt>
      <trkpt lat="46.521168" lon="11.873784"><ele>1840.0</ele></trkpt>
      <trkpt lat="46.521084" lon="11.873787"><ele>1840.1</ele></trkpt>
      <trkpt lat="46.520996" lon="11.873787"><ele>1840.1</ele></trkpt>
      <trkpt lat="46.520908" lon="11.873786"><ele>1840.2</ele></trkpt>
      <trkpt lat="46.520844" lon="11.873791"><ele>1840.3</ele></trkpt>
      <trkpt lat="46.520782" lon="11.873794"><ele>1840.4</ele></trkpt>
      <trkpt lat="46.520725" lon="11.873791"><ele>1840.6</ele></trkpt>
      <trkpt lat="46.520630" lon="11.873789"><ele>1840.8</ele></trkpt>
      <trkpt lat="46.520538" lon="11.873790"><ele>1841.0</ele></trkpt>
      <trkpt lat="46.520477" lon="11.873789"><ele>1841.2</ele></trkpt>
      <trkpt lat="46.520416" lon="11.873786"><ele>1841.4</ele></trkpt>
      <trkpt lat="46.520351" lon="11.873785"><ele>1841.6</ele></trkpt>
      <trkpt lat="46.520294" lon="11.873791"><ele>1841.8</ele></trkpt>
      <trkpt lat="46.520248" lon="11.873789"><ele>1841.9</ele></trkpt>
      <trkpt lat="46.520184" lon="11.873780"><ele>1842.2</ele></trkpt>
      <trkpt lat="46.520142" lon="11.873789"><ele>1842.5</ele></trkpt>
      <trkpt lat="46.520103" lon="11.873786"><ele>1842.7</ele></trkpt>
      <trkpt lat="46.520077" lon="11.873775"><ele>1842.8</ele></trkpt>
      <trkpt lat="46.520012" lon="11.873773"><ele>1843.2</ele></trkpt>
      <trkpt lat="46.519947" lon="11.873773"><ele>1843.6</ele></trkpt>
      <trkpt lat="46.519901" lon="11.873767"><ele>1843.8</ele></trkpt>
      <trkpt lat="46.519859" lon="11.873764"><ele>1844.0</ele></trkpt>
      <trkpt lat="46.519794" lon="11.873765"><ele>1844.0</ele></trkpt>
      <trkpt lat="46.519753" lon="11.873760"><ele>1844.0</ele></trkpt>
      <trkpt lat="46.519726" lon="11.873752"><ele>1844.0</ele></trkpt>
      <trkpt lat="46.519711" lon="11.873746"><ele>1844.0</ele></trkpt>
      <trkpt lat="46.519699" lon="11.873751"><ele>1844.0</ele></trkpt>
      <trkpt lat="46.519707" lon="11.873983"><ele>1844.0</ele></trkpt>
      <trkpt lat="46.519726" lon="11.873899"><ele>1844.0</ele></trkpt>
      <trkpt lat="46.519707" lon="11.873830"><ele>1844.0</ele></trkpt>
      <trkpt lat="46.519665" lon="11.873814"><ele>1844.0</ele></trkpt>
      <trkpt lat="46.519615" lon="11.873796"><ele>1844.0</ele></trkpt>
      <trkpt lat="46.519581" lon="11.873789"><ele>1844.0</ele></trkpt>
      <trkpt lat="46.519516" lon="11.873776"><ele>1844.0</ele></trkpt>
      <trkpt lat="46.519451" lon="11.873763"><ele>1844.0</ele></trkpt>
      <trkpt lat="46.519386" lon="11.873745"><ele>1844.0</ele></trkpt>
      <trkpt lat="46.519348" lon="11.873733"><ele>1844.0</ele></trkpt>
      <trkpt lat="46.519306" lon="11.873718"><ele>1844.0</ele></trkpt>
      <trkpt lat="46.519245" lon="11.873690"><ele>1844.4</ele></trkpt>
      <trkpt lat="46.519207" lon="11.873664"><ele>1844.9</ele></trkpt>
      <trkpt lat="46.519146" lon="11.873625"><ele>1845.7</ele></trkpt>
      <trkpt lat="46.519100" lon="11.873598"><ele>1846.2</ele></trkpt>
      <trkpt lat="46.519054" lon="11.873575"><ele>1846.8</ele></trkpt>
      <trkpt lat="46.518990" lon="11.873534"><ele>1847.6</ele></trkpt>
      <trkpt lat="46.518929" lon="11.873493"><ele>1848.3</ele></trkpt>
      <trkpt lat="46.518864" lon="11.873464"><ele>1849.0</ele></trkpt>
      <trkpt lat="46.518799" lon="11.873432"><ele>1849.7</ele></trkpt>
      <trkpt lat="46.518761" lon="11.873399"><ele>1850.2</ele></trkpt>
      <trkpt lat="46.518696" lon="11.873356"><ele>1850.9</ele></trkpt>
      <trkpt lat="46.518654" lon="11.873332"><ele>1851.3</ele></trkpt>
      <trkpt lat="46.518612" lon="11.873306"><ele>1851.8</ele></trkpt>
      <trkpt lat="46.518539" lon="11.873263"><ele>1852.6</ele></trkpt>
      <trkpt lat="46.518467" lon="11.873230"><ele>1853.3</ele></trkpt>
      <trkpt lat="46.518421" lon="11.873206"><ele>1853.8</ele></trkpt>
      <trkpt lat="46.518360" lon="11.873183"><ele>1854.4</ele></trkpt>
      <trkpt lat="46.518322" lon="11.873171"><ele>1854.8</ele></trkpt>
      <trkpt lat="46.518288" lon="11.873148"><ele>1855.2</ele></trkpt>
      <trkpt lat="46.518246" lon="11.873120"><ele>1855.6</ele></trkpt>
      <trkpt lat="46.518208" lon="11.873092"><ele>1856.0</ele></trkpt>
      <trkpt lat="46.518166" lon="11.873068"><ele>1856.5</ele></trkpt>
      <trkpt lat="46.518105" lon="11.873025"><ele>1857.2</ele></trkpt>
      <trkpt lat="46.518063" lon="11.872996"><ele>1857.6</ele></trkpt>
      <trkpt lat="46.517990" lon="11.872956"><ele>1858.4</ele></trkpt>
      <trkpt lat="46.517918" lon="11.872918"><ele>1859.2</ele></trkpt>
      <trkpt lat="46.517845" lon="11.872874"><ele>1860.1</ele></trkpt>
      <trkpt lat="46.517792" lon="11.872848"><ele>1860.7</ele></trkpt>
      <trkpt lat="46.517738" lon="11.872828"><ele>1861.3</ele></trkpt>
      <trkpt lat="46.517654" lon="11.872817"><ele>1862.0</ele></trkpt>
      <trkpt lat="46.517597" lon="11.872809"><ele>1862.2</ele></trkpt>
      <trkpt lat="46.517506" lon="11.872804"><ele>1862.4</ele></trkpt>
      <trkpt lat="46.517410" lon="11.872791"><ele>1862.6</ele></trkpt>
      <trkpt lat="46.517307" lon="11.872790"><ele>1862.9</ele></trkpt>
      <trkpt lat="46.517242" lon="11.872793"><ele>1863.1</ele></trkpt>
      <trkpt lat="46.517136" lon="11.872805"><ele>1864.1</ele></trkpt>
      <trkpt lat="46.517067" lon="11.872810"><ele>1864.7</ele></trkpt>
      <trkpt lat="46.516968" lon="11.872814"><ele>1865.5</ele></trkpt>
      <trkpt lat="46.516899" lon="11.872827"><ele>1866.0</ele></trkpt>
      <trkpt lat="46.516804" lon="11.872834"><ele>1866.7</ele></trkpt>
      <trkpt lat="46.516739" lon="11.872835"><ele>1867.0</ele></trkpt>
      <trkpt lat="46.516670" lon="11.872838"><ele>1867.3</ele></trkpt>
      <trkpt lat="46.516563" lon="11.872840"><ele>1867.9</ele></trkpt>
      <trkpt lat="46.516464" lon="11.872846"><ele>1868.7</ele></trkpt>
      <trkpt lat="46.516361" lon="11.872859"><ele>1869.5</ele></trkpt>
      <trkpt lat="46.516258" lon="11.872863"><ele>1870.3</ele></trkpt>
      <trkpt lat="46.516193" lon="11.872869"><ele>1870.8</ele></trkpt>
      <trkpt lat="46.516094" lon="11.872864"><ele>1871.7</ele></trkpt>
      <trkpt lat="46.516003" lon="11.872841"><ele>1872.4</ele></trkpt>
      <trkpt lat="46.515911" lon="11.872808"><ele>1873.2</ele></trkpt>
      <trkpt lat="46.515835" lon="11.872795"><ele>1873.7</ele></trkpt>
      <trkpt lat="46.515751" lon="11.872765"><ele>1874.4</ele></trkpt>
      <trkpt lat="46.515678" lon="11.872728"><ele>1875.0</ele></trkpt>
      <trkpt lat="46.515602" lon="11.872693"><ele>1875.6</ele></trkpt>
      <trkpt lat="46.515526" lon="11.872671"><ele>1876.2</ele></trkpt>
      <trkpt lat="46.515472" lon="11.872656"><ele>1876.6</ele></trkpt>
      <trkpt lat="46.515396" lon="11.872628"><ele>1877.3</ele></trkpt>
      <trkpt lat="46.515347" lon="11.872612"><ele>1877.7</ele></trkpt>
      <trkpt lat="46.515266" lon="11.872587"><ele>1878.4</ele></trkpt>
      <trkpt lat="46.515205" lon="11.872572"><ele>1878.9</ele></trkpt>
      <trkpt lat="46.515133" lon="11.872549"><ele>1879.5</ele></trkpt>
      <trkpt lat="46.515083" lon="11.872531"><ele>1880.0</ele></trkpt>
      <trkpt lat="46.515030" lon="11.872515"><ele>1880.4</ele></trkpt>
      <trkpt lat="46.514950" lon="11.872496"><ele>1881.1</ele></trkpt>
      <trkpt lat="46.514893" lon="11.872485"><ele>1881.6</ele></trkpt>
      <trkpt lat="46.514812" lon="11.872461"><ele>1882.4</ele></trkpt>
      <trkpt lat="46.514755" lon="11.872448"><ele>1882.9</ele></trkpt>
      <trkpt lat="46.514671" lon="11.872428"><ele>1883.7</ele></trkpt>
      <trkpt lat="46.514622" lon="11.872413"><ele>1884.2</ele></trkpt>
      <trkpt lat="46.514545" lon="11.872391"><ele>1884.9</ele></trkpt>
      <trkpt lat="46.514492" lon="11.872375"><ele>1885.4</ele></trkpt>
      <trkpt lat="46.514408" lon="11.872355"><ele>1885.8</ele></trkpt>
      <trkpt lat="46.514328" lon="11.872331"><ele>1886.1</ele></trkpt>
      <trkpt lat="46.514244" lon="11.872299"><ele>1886.3</ele></trkpt>
      <trkpt lat="46.514191" lon="11.872284"><ele>1886.5</ele></trkpt>
      <trkpt lat="46.514137" lon="11.872282"><ele>1886.7</ele></trkpt>
      <trkpt lat="46.514061" lon="11.872293"><ele>1887.0</ele></trkpt>
      <trkpt lat="46.513988" lon="11.872317"><ele>1887.3</ele></trkpt>
      <trkpt lat="46.513939" lon="11.872341"><ele>1887.5</ele></trkpt>
      <trkpt lat="46.513878" lon="11.872377"><ele>1887.9</ele></trkpt>
    </trkseg>
  </trk>
</gpx>
